"company","address","businessType","numberAffected","totalEmployees","union","noticeDate","closingDate","reasonDislocation","reason","url","location","longitude","latitude"
"Timeless Décor, LLC (LCO Destiny DBA Timeless Frames)","22419 Fisher Road, Watertown, NY 13601","A supplier of Picture Frames","45","81","The employees are not represented by a union.","12/24/2019","-----","Economic","Plant Layoff","https://labor.ny.gov/app/warn/details.asp?id=7048","22419 Fisher Rd, Watertown, NY 13601, USA",43.9902072,-75.9465098
"Barneys New York","575 5th Avenue, New York, NY 10017","Retail","165","165","New York New Jersey Regional Joint Board Workers United A/W SEIU","10/16/2019","December 31, 2019","Economic","Plant Closing","https://labor.ny.gov/app/warn/details.asp?id=7047","575 5th Ave, New York, NY 10017, USA",40.7563205,-73.9782735
"General Parts Distribution, LLC d/b/a Carquest Auto Parts","215 Business Park Drive, Armonk, NY 10504","Auto parts distribution","80","80","Teamsters Local 202","9/18/2019","December 31, 2019","Economic","Plant Closing","https://labor.ny.gov/app/warn/details.asp?id=7043","215 Business Park Dr, Armonk, NY 10504, USA",41.1118937,-73.7130307
"Somos Healthcare Providers, Inc.","519 Eighth Avenue, 14th Floor, New York, NY 10118","Community care and advocate community provider","130","130","The employees are not represented by a union.","10/7/2019","January 5, 2020","New York State contract expired","Plant Closing","https://labor.ny.gov/app/warn/details.asp?id=7044","519 8th Ave 14th fl, New York, NY 10018, USA",40.7534105,-73.9930178
"Regeneron Healthcare Solutions, Inc., a wholly owned subsidiary of Regeneron Pharmaceuticals, Inc.","1 Rockwood Rd., Sleepy Hollow, NY 10591","Biotechnology company","15","-----","The employees are not represented by a union.","12/20/2019","-----","Termination of all field and supporting staff associated with one of their products.","Plant Unit Closing","https://labor.ny.gov/app/warn/details.asp?id=7045","1 Rockwood Rd, Sleepy Hollow, NY 10591, USA",41.1110512,-73.8637008
"Spacious Technologies LLC subsidiary of WeWork Companies, LLC","134 Fifth Avenue, New York, NY 10011","Commercial real estate company","48","48","The employees are not represented by a union.","12/12/2019","March 11, 2020","Economic","Plant Closing","https://labor.ny.gov/app/warn/details.asp?id=7042","134 5th Ave, New York, NY 10011, USA",40.7389372,-73.9919328
"WeWork Companies, Inc.","115 W 18th St., New York, NY 10011","Commercial real estate company","423","922 (total employees for all affected sites)","The employees are not represented by a union.","11/22/2019   (Amended","","Economic","Plant Layoff","https://labor.ny.gov/app/warn/details.asp?id=7041","115 W 18th St, New York, NY 10011, USA",40.740273,-73.9956879
"Eastman Kodak Company (Eastman Business Park)","1669 Lake Avenue, Rochester, NY 14650","Photographic equipment and Supplies","3","-----","The employees are not represented by a union.","12/17/2019","-----","Economic","Plant Layoff","https://labor.ny.gov/app/warn/details.asp?id=7040","1669 Lake Ave, Rochester, NY 14615, USA",43.1968638,-77.6303804
"Eastman Kodak Company (Kodak Office)","343 State Street, Rochester, NY 14650","Photographic equipment and Supplies","1","178","The employee is not represented by a union.","12/10/2019","-----","Economic","Plant Layoff","https://labor.ny.gov/app/warn/details.asp?id=7039","Kodak Tower, 343 State St, Rochester, NY 14650, USA",43.1608082,-77.6196475
"Eyeview, Inc.","33 East 33rd Street, 6th Floor, New York, NY 10016","Video marketing technology company","61","61","The employees are not represented by a union.","12/12/2019","12/31/2019","Economic","Plant Closing","https://labor.ny.gov/app/warn/details.asp?id=7038","33 E 33rd St 6th floor, New York, NY 10016, USA",40.7468506,-73.9826256
"Evolent Health LLC","519 8th Ave, Suite 14, New York, NY 10018","a company providing an integrated value-based care platform for the nations leading providers and payers","49","-----","The employees are not represented by a union.","12/12/2019","-----","Loss of contract with SOMOS Healthcare Providers. Inc.","Plant Layoff","https://labor.ny.gov/app/warn/details.asp?id=7033","519 8th Ave #14, New York, NY 10018, USA",40.7533306,-73.9930396
"HCL America, Inc.","800 Phillips Road, Webster, NY 14580","Leading global IT services company","16","217","The employees are not represented by a union.","12/10/2019","-----","Economic","Plant Layoff","https://labor.ny.gov/app/warn/details.asp?id=7034","800 Phillips Rd, Webster, NY 14580, USA",43.2228451,-77.4170792
"Eastman Kodak Company (Kodak Office)","343 State Street, Rochester, NY 14650","Photographic equipment and Supplies","1 (employee is a remote worker)","-----","The remote employee is not represented by a union.","11/19/2019","-----","Economic","Plant Layoff","https://labor.ny.gov/app/warn/details.asp?id=7036","Kodak Tower, 343 State St, Rochester, NY 14650, USA",43.1608082,-77.6196475
"PB&J Group, LLC (dba Candle 79)","154 East 79th Street, New York, NY 10075","Organic restaurant","48","48","The employees are not represented by a union.","9/30/2019","12/31/2019","Economic","Plant Closing","https://labor.ny.gov/app/warn/details.asp?id=7037","154 E 79th St, New York, NY 10075, USA",40.7746547,-73.9587248
"GBG USA Inc. (Global Brands Group)","Corporate Headquarters, 350 5th Ave","Apparel store offices","83","340","The employees are not represented by a union.","12/9/2019","-----","Economic","Plant Layoff","https://labor.ny.gov/app/warn/details.asp?id=7031","350 5th Ave # 4410, New York, NY 10118, USA",40.7484404,-73.9856554
"Catholic Guardian Services","140 Casals Place, Co-Op City, Apt. 21 H, Bronx, NY 10475","Human services non-profit organization with programs that help a large needy population in the New York metropolitan area.","34","174 (total employees at all sites)","United Food & Commercial Workers’ Union (UFCW) Local 888","9/9/2019","January 3, 2020","Discontinuation of operations","Plant Closing","https://labor.ny.gov/app/warn/details.asp?id=7032","140 Casals Pl Apt 21b, The Bronx, NY 10475, USA",40.8783513,-73.8244122
"Castelli America, LLC","5151, 5152, 5183 Fairbanks Road and 5185 Route 474,, Harmony, New York 14710","Cheese manufacturer","68","68","The employees are not represented by a union.","12/11/2019","December 6, 2019","Economic","Plant Closing","https://labor.ny.gov/app/warn/details.asp?id=7030","5152 Fairbanks Rd #5151, Ashville, NY 14710, USA",42.080346,-79.397809
"Gibsons Bar and Steakhouse (at the Polo Bar Ralph Lauren)","1 E. 55th Street, New York, NY 10022","Restaurant","156","156","The employees are not represented by a union.","12/6/2019","February 1, 2020","Gibsons Bar and Steakhouse is ceasing its operations at the Polo Bar Ralph Lauren.","Plant Closing","https://labor.ny.gov/app/warn/details.asp?id=7029","1 E 55th St, New York, NY 10022, USA",40.7617135,-73.9743749
"Brooks-TLC Hospital System, Inc., TLC Health Network Campus","845 Routes 5 & 20 (Main Road), Irving, NY 14081","Acute Care Hospital","201","201","1199 SEIU United Healthcare Workers East","12/5/2019","January 1, 2020","Economic","Plant Closing","https://labor.ny.gov/app/warn/details.asp?id=7028","Main Rd, New York, USA",42.5273447,-79.173954
"GL&V USA, Inc. (Part of Valmet)","27 Allen Street, Hudson Falls, NY 12839","Paper mill machinery manufacturer","40","40","The employees are not represented by a union.","12/4/2019","December 31, 2020","Economic","Plant Closing","https://labor.ny.gov/app/warn/details.asp?id=7022","27 Allen St, Hudson Falls, NY 12839, USA",43.293388,-73.5917097
"HCL America, Inc.","800 Phillips Road, Webster, NY 14580","Leading global IT services company","11","-----","The employees are not represented by a union.","11/27/2019","-----","Economic","Plant Layoff","https://labor.ny.gov/app/warn/details.asp?id=7023","800 Phillips Rd, Webster, NY 14580, USA",43.2228451,-77.4170792
"WeWork Companies, Inc.","115 W 18th St., New York, NY 10011","Commercial real estate company","414","911 (total employees for all affected sites)","The employees are not represented by a union.","11/22/2019","-----","Economic","Plant Layoff","https://labor.ny.gov/app/warn/details.asp?id=7024","115 W 18th St, New York, NY 10011, USA",40.740273,-73.9956879
"Crystal Run Health Plan, LLC (Phase 3)","109 Rykowski Lane, Middletown, NY 10941","Health Plans","4","18","The employees are not represented by a union.","12/6/2019","5/31/2022","Economic","Plant Closing","https://labor.ny.gov/app/warn/details.asp?id=7025","109 Rykowski Ln, Middletown, NY 10941, USA",41.4512684,-74.3480251
"Quality Frozen Foods, Inc.","1663 62nd Street, Brooklyn, NY 11204","Wholesale grocer","82","82","Teamsters Local 707","12/5/2019","March 4, 2020","Sale of the business","Plant Closing","https://labor.ny.gov/app/warn/details.asp?id=7026","1663 62nd St, Brooklyn, NY 11204, USA",40.6227568,-73.9911294
"KIK Custom Products","935 East Hiawatha Blvd., Syracuse, NY 13208","Packaging and labeling services","27","38","The employees are not represented by a union.","12/3/2019","-----","Significant reduction in production","Plant Layoff","https://labor.ny.gov/app/warn/details.asp?id=7021","935 Hiawatha Blvd, Syracuse, NY 13208, USA",43.08074,-76.1601419
"Icahn Capital L.P.","767 Fifth Avenue, New York, NY 10153","Private equity","3","27 (total affected employees at all sites)","The employees are not represented by a union.","12/3/2019","March 31, 2020","Relocating to Miami, Florida","Plant Closing","https://labor.ny.gov/app/warn/details.asp?id=7020","767 5th Ave, New York, NY 10153, USA",40.7636433,-73.9726971
"Featherstone Foods, Inc.","1164 E. 156th Street, Bronx, NY 10474","Food products supplier","99","99","The employees are not represented by a union.","12/2/2019","-----","Acquisition of Featherstone Foods, Inc. by Featherstone Distribution, LLC.","Plant Layoff","https://labor.ny.gov/app/warn/details.asp?id=7016","1164 E 156th St, The Bronx, NY 10474, USA",40.8125209,-73.8933661
"Crosstex International, Inc. (Cantel) Phase 3","10 Ranick Road, Hauppauge, NY 11788","Dental equipment distribution and manufacturing","13","88","The employees are not represented by a union.","11/27/2019","-----","Restructuring which will involve the relocation of certain dental equipment distribution and manufacturing operations to Rush, NY.","Plant Layoff","https://labor.ny.gov/app/warn/details.asp?id=7017","10 Ranick Rd, Hauppauge, NY 11788, USA",40.8090382,-73.2294463
"Ibase Operations Corp. 'dba' Qualitest","111 8th Ave, New York, NY 10011","Independent software testing & Quality Assurance Service","63","63","The employees are not represented by a union.","10/22/2019","February 28, 2020","Economic","Plant Closing","https://labor.ny.gov/app/warn/details.asp?id=7019","111 8th Ave, New York, NY 10011, USA",40.7414688,-74.0033873
"ACCO Brands USA LLC","941 Acco Way, Ogdensburg, NY 13669","Manufacturing operations","54","100","United Steel, Paper and Forestry, Rubber, Manufacturing, Energy, Allied Industrial and Service Workers International Union, Local 4-503","9/23/2019","1/24/2020","Termination of Manufacturing Operations","Plant Unit Closing","https://labor.ny.gov/app/warn/details.asp?id=7013","941 Acco Way, Ogdensburg, NY 13669, USA",44.7214577,-75.4353317
"Oakwood Worldwide (US) LP","888 Sixth Avenue, Suite 305, New York, NY 10017","Providing temporary and long-term housing accommodations for relocated individuals and corporate officials.","21","21 (total at both sites)","New York Hotel & Motel Trades Council","12/3/2019","March 2, 2020","Economic","Plant Closing","https://labor.ny.gov/app/warn/details.asp?id=7014","888 6th Ave #305, New York, NY 10001, USA",40.7481543,-73.9886899
"Distinctive Maintenance Partners, LLC","851 Tinton Avenue, Bronx, NY 10456","Cleaning Services","118","-----","The employees are not represented by a union.","11/27/2019","-----","Non-renewal of service contract with Acacia Housing Network Inc.","Plant Layoff","https://labor.ny.gov/app/warn/details.asp?id=7015","851 Tinton Ave, The Bronx, NY 10456, USA",40.8206168,-73.9041578
"PrimeFlight Aviation Services, Inc.","John F. Kennedy International Airport, Queens, NY 11430","Provides airline, aircraft, airport services","450","450","Service Employees International Union Local 32BJ (SEIU)","11/25/2019","3/1/2020","Loss of contract with JetBlue Airway Corporation at John F. Kennedy International Airport","Plant Unit Closing","https://labor.ny.gov/app/warn/details.asp?id=7008","John F. Kennedy International Airport (JFK), Queens, NY 11430, USA",40.6413111,-73.7781391
"Jet.com Inc. (Walmart)","1055 Bronx River Ave, Bronx, NY 10472","Online grocery services","160","160","The employees are not represented by a union.","11/22/2019","2/28/2020","Economic","Plant Unit Closing","https://labor.ny.gov/app/warn/details.asp?id=7009","1055 Bronx River Ave, The Bronx, NY 10472, USA",40.8240854,-73.8836213
"WeWork Companies, Inc.","115 W 18th St., New York, NY 10011","Commercial real estate company","414","898 (total employees for all affected sites)","The employees are not represented by a union.","11/22/2019","-----","Economic","Plant Layoff","https://labor.ny.gov/app/warn/details.asp?id=7010","115 W 18th St, New York, NY 10011, USA",40.740273,-73.9956879
"Salisbury Hotel","123 West 57th Street, New York, NY 10019","Hotel","87","87","New York Hotel and Motel Trades Council, AFL-CIO (Local 6)","11/22/2019","2/20/2020","Economic","Plant Closing","https://labor.ny.gov/app/warn/details.asp?id=7011","123 W 57th St, New York, NY 10019, USA",40.7651285,-73.9783656
"Eastman Kodak Company (Kodak Office)","343 State Street, Rochester, NY 14650","Photographic equipment and Supplies","1","178","The employee is not represented by a union.","11/25/2019","-----","Economic","Plant Layoff","https://labor.ny.gov/app/warn/details.asp?id=7012","Kodak Tower, 343 State St, Rochester, NY 14650, USA",43.1608082,-77.6196475
"Gourmet Management Corp. (TGI Fridays, KFC, Taco Bell, Pizza Hut, Haagen Dazs, Tim Hortons & Beer Cart Restaurants located at the Restaurant Complex on the Amtrak level of Penn Station)","560 Fifth Avenue, 3rd Floor, New York, NY 10036","Restaurants","45","45","The employees are not represented by a union.","7/13/2018","3/31/2020","Expiration of lease","Plant Closing","https://labor.ny.gov/app/warn/details.asp?id=7006","560 5th Ave 3rd Floor, New York, NY 10036, USA",40.7560789,-73.9794056
"Home Box Office. Inc.","30 Hudson Yards, New York, NY 10001","American premium channel owned by the Home Box Office, Inc.","15","1,173","The employees are not represented by a union.","11/14/2019","-----","Merger","Plant Layoff","https://labor.ny.gov/app/warn/details.asp?id=7001","30 Hudson Yards, New York, NY 10001, USA",40.7541644,-74.0009082
"Residential Treatment Center and Learning Center, Lutheran  Social Services Group, Inc. (Gustavus Adoiphus Child and Family Services, Inc.)","715 Falconer Avenue, Jamestown, NY 14701","","","","The employees are not represented by a union.","11/15/2019","","","Plant Layoff","https://labor.ny.gov/app/warn/details.asp?id=7002","715 Falconer St, Jamestown, NY 14701, USA",42.1149055,-79.2101312
"Residential Treatment Center (Gustavus Adolphus Child and  Family Services, Inc.)","200 Gustavus Avenue, Jamestown, NY 14701","","","","The employees are not represented by a union.","11/15/2019","","","","https://labor.ny.gov/app/warn/details.asp?id=7003","200 Gustavus Ave, Jamestown, NY 14701, USA",42.1159061,-79.2106159
"Learning Center (Gustavus Adolphus Child and Family Services,  Inc.)","210 Gustavus Avenue, Jamestown, NY 14701","","","","New York State United Teachers","11/15/2019","","","","https://labor.ny.gov/app/warn/details.asp?id=7004","210 Gustavus Ave, Jamestown, NY 14701, USA",42.1161496,-79.2109031
"Mountain States Rosen Company (Hunts Point Co Op Markets)","355 Food Center Drive, Bronx,  NY 10474","","","","UFCW Local 342","11/20/2019","","","Plant Closing","https://labor.ny.gov/app/warn/details.asp?id=7005","355 Food Center Dr, The Bronx, NY 10474, USA",40.8057385,-73.874985
"Home Box Office, Inc.","30 Hudson Yards, New York, NY 10001","American premium channel owned by the Home Box Office, Inc.","12","1,173","The employees are not represented by a union.","10/22/2019","-----","Merger","Plant Layoff","https://labor.ny.gov/app/warn/details.asp?id=6998","30 Hudson Yards, New York, NY 10001, USA",40.7541644,-74.0009082
"Eastman Kodak Company (Kodak Office)","343 State Street, Rochester, NY 14650","Photographic equipment and Supplies","1","-----","The employees are not represented by a union.","11/12/2019","-----","Economic","Plant Layoff","https://labor.ny.gov/app/warn/details.asp?id=6996","Kodak Tower, 343 State St, Rochester, NY 14650, USA",43.1608082,-77.6196475
"Plated.","111 W. 19th Street, 3rd Floor, New York, NY 10011","American ingredient-and-recipe meal kit service","128","128","The employees are not represented by a union.","11/12/2019","February 10, 2020","Economic","Plant Closing","https://labor.ny.gov/app/warn/details.asp?id=6997","111 W 19th St 3rd Floor, New York, NY 10011, USA",40.7410521,-73.9952147
"Cayuga Operating Company LLC (Heorot Power)","228 Cayuga Drive, Lansing, NY 14882","Power station","44","44","International Brotherhood of Electrical Workers, Local 10","7/31/2019","To be determined","Economic","Plant Closing","https://labor.ny.gov/app/warn/details.asp?id=6995","228 Cayuga Dr, Lansing, NY 14882, USA",42.6052792,-76.6157492
"Transform SR LLC (Sears Unit #01984)","S 3701 McKinley Parkway, Buffalo, NY 14219","Retail store","45","45","The employees are not represented by a union.","11/8/2019","February 16, 2020","Economic","Plant Closing","https://labor.ny.gov/app/warn/details.asp?id=6992","3701 McKinley Pkwy, Blasdell, NY 14219, USA",42.7842587,-78.8090358
"Transform KM LLC (Kmart Unit #03862)","5151 Sunrise Highway, Bohemia, NY 11716","Retail store","78","78","The employees are not represented by a union.","11/8/2019","February 16, 2020","Economic","Plant Closing","https://labor.ny.gov/app/warn/details.asp?id=6993","5151 Sunrise Hwy, Bohemia, NY 11716, USA",40.7641522,-73.0945731
"Transform KM LLC (Sidney - Kmart Unit #07676)","171 Delaware Avenue, Sidney, NY 13838","Retail store","84","84","The employees are not represented by a union.","11/8/2019","February 16, 2020","Economic","Plant Closing","https://labor.ny.gov/app/warn/details.asp?id=6994","171 Delaware Ave, Sidney, NY 13838, USA",42.29635,-75.4109823
"Forever 21 (Store #0614)","World Trade Center, 185 Greenwich Street, Ste. LL4435","Retail Store","66","126 (Total employees affected at both sites)","The employees are not represented by a union.","11/1/2019","February 4, 2020","Economic","Plant Closing","https://labor.ny.gov/app/warn/details.asp?id=6990","185 Greenwich St, New York, NY 10007, USA",40.7115663,-74.0114261
"Barneys New York","575 5th Avenue, New York, NY 10017","Retail","165","165","New York New Jersey Regional Joint Board Workers United A/W SEIU","10/16/2019","December 15, 2019","Economic","Plant Closing","https://labor.ny.gov/app/warn/details.asp?id=6991","575 5th Ave, New York, NY 10017, USA",40.7563205,-73.9782735
"Damiano Corp of Jamaica d/b/a McDonald's","166-30 Jamaica Ave, Jamaica, NY 11432","Restaurant","23","23","The employees are not represented by a union.","10/30/2019","November 30, 2019","Economic","Plant Closing","https://labor.ny.gov/app/warn/details.asp?id=6989","166-30 Jamaica Ave, Jamaica, NY 11432, USA",40.7060016,-73.7928602
"Marvell Semiconductor, Inc. (East Fishkill office)","2070 Route 52, Hopewell Junction, NY 12533","Global semiconductor company","23","-----","The employees are not represented by a union.","11/5/2019","-----","Economic","Plant Layoff","https://labor.ny.gov/app/warn/details.asp?id=6988","2070 NY-52, Hopewell Junction, NY 12533, USA",41.5430563,-73.8258807
"LSC Communications US, LLC (Dover Publications office)","31 East 2nd Street, Mineola, NY 11501","Commercial printing company","23","59","The employees are not represented by a union.","11/7/2019","-----","Economic","Plant Layoff","https://labor.ny.gov/app/warn/details.asp?id=6987","31 E 2nd St, Mineola, NY 11501, USA",40.7426048,-73.6328422
"Eastman Kodak Company (Kodak Office)","343 State Street, Rochester, NY 14650","Photographic equipment and Supplies","1 (employee is a remote worker)","------","The employee is not represented by a union.","10/29/2019","------","Economic","Plant Layoff","https://labor.ny.gov/app/warn/details.asp?id=6981","Kodak Tower, 343 State St, Rochester, NY 14650, USA",43.1608082,-77.6196475
"Eastman Kodak Company (Kodak Office)","343 State Street, Rochester, NY 14650","Photographic equipment and Supplies","3","------","The employees are not represented by a union.","10/30/2019","------","Economic","Plant Layoff","https://labor.ny.gov/app/warn/details.asp?id=6982","Kodak Tower, 343 State St, Rochester, NY 14650, USA",43.1608082,-77.6196475
"Eastman Kodak Company (Kodak Office)","343 State Street, Rochester, NY 14650","Photographic equipment and Supplies","2","------","The employees are not represented by a union.","10/31/2019","------","Economic","Plant Layoff","https://labor.ny.gov/app/warn/details.asp?id=6983","Kodak Tower, 343 State St, Rochester, NY 14650, USA",43.1608082,-77.6196475
"L3Harris Technologies","600 Third Avenue, New York, NY 10016","A global defense technology leader","34","-----","The employees are not represented by a union.","10/28/2019","-----","Economic","Plant Layoff","https://labor.ny.gov/app/warn/details.asp?id=6979","600 3rd Ave, New York, NY 10016, USA",40.7493238,-73.9759092
"IPRO Headquarters","1979 Marcus Avenue, Suite 105, Lake Success, New York 11042","Health Care Service Contracts","136","228","The employees are not represented by a union.","10/31/2019","-----","End of one of IPRO’s core contracts","Plant Layoff","https://labor.ny.gov/app/warn/details.asp?id=6980","1979 Marcus Ave # 105, New Hyde Park, NY 11042, USA",40.7552251,-73.6934286
"Lord + Taylor","1825 Palisades Center Drive, West Nyack, NY 10994","Retail store","91","91","The employees are not represented by a union.","10/31/2019","1/31/2020","Economic","Plant Closing","https://labor.ny.gov/app/warn/details.asp?id=6975","1825 Palisades Center Dr, West Nyack, NY 10994, USA",41.0970061,-73.9535386
"Bethany Nursing Home & HRF, Inc. and Bethany Retirement Home, Inc.","(collectively Bethany Village), 3005 Watkins Road","Food service operations unit","52","52","The employees are not represented by a union.","10/28/2019","2/8/2020","Bethany Village will be contracting with Morrison Community Living, a division of Morrison Management Specialists, Inc.","Plant Unit Closing","https://labor.ny.gov/app/warn/details.asp?id=6976","3005 Watkins Rd, Horseheads, NY 14845, USA",42.1831981,-76.8335129
"Dexia Credit Local, New York Branch","445 Park Avenue, New York, NY 10022","Bank","33","71","The employees are not represented by a union.","9/3/2019","-----","Economic","Plant Layoff","https://labor.ny.gov/app/warn/details.asp?id=6977","445 Park Ave, New York, NY 10022, USA",40.7610924,-73.9705667
"Eastman Kodak Company (Kodak Office)","343 State Street, Rochester, NY 14650","Photographic equipment and Supplies","2 (one employee is a remote worker)","------","The employees are not represented by a union.","10/23/2019","------","Economic","Plant Layoff","https://labor.ny.gov/app/warn/details.asp?id=6973","Kodak Tower, 343 State St, Rochester, NY 14650, USA",43.1608082,-77.6196475
"iPic Entertainment Inc.","1 Hamilton Street, Dobbs Ferry, NY 10522","Theater company","126","126","The employees are not represented by a union.","10/29/2019","November 11, 2019","Economic","Plant Closing","https://labor.ny.gov/app/warn/details.asp?id=6974","1 Hamilton St, Dobbs Ferry, NY 10522, USA",41.0040817,-73.8572593
"Macquarie Holdings (U.S.A.) Inc.","125 W. 55th Street, New York, NY 10019","Fincanial services (US Cash Equities Division)","86","-----","The employees are not represented by a union.","10/29/2019","-----","Economic","Plant Layoff","https://labor.ny.gov/app/warn/details.asp?id=6971","125 W 55th St, New York, NY 10022, USA",40.7635461,-73.9790278
"Cascades Tissue Group","148 Hudson River Road, Waterford, NY 12188","Tissue manufacturing and conversion company","96","96","The employees are not represented by a union.","10/29/2019","3/27/2020","Economic","Plant Closing","https://labor.ny.gov/app/warn/details.asp?id=6972","148 Hudson River Rd, Waterford, NY 12188, USA",42.8092365,-73.6691446
"CONMED Corporation and Buffalo Filter, LLC","5900 Genesee Street, Lancaster, NY 14086","Medical equipment manufacturer","54","96","The employees are not represented by a union.","10/24/2019","-----","Economic","Plant Layoff","https://labor.ny.gov/app/warn/details.asp?id=6967","5900 Genesee St, Lancaster, NY 14086, USA",42.9464039,-78.6336676
"HMS Ferries, Inc. (HMS Global Maritime LLC)","10 South Street, New York, NY 10004","Full-service marine management company","29","29","International Organization of Masters, Mates & Pilots","10/9/2019","10/31/2019","Loss of contract to continue services at the Governors Island site","Plant Closing","https://labor.ny.gov/app/warn/details.asp?id=6964","10 South St, New York, NY 10004, USA",40.7010846,-74.012248
"Nordstrom (Rack Store at Skyview Center (Store 512)","4024 College Point Blvd., Suite D417, Flushing, NY 11354","Retail Store","42","42","The employees are not represented by a union.","10/25/2019","1/31/2020","Economic","Plant Closing","https://labor.ny.gov/app/warn/details.asp?id=6965","4024 College Point Blvd D417, Flushing, NY 11354, USA",40.7573044,-73.835146
"AmTrust Financial Services, Inc.","600 Essjay Drive, Williamsville, NY 14221","Insurance","39","74","The employees are not represented by a union.","10/23/2019","-----","Economic","Plant Layoff","https://labor.ny.gov/app/warn/details.asp?id=6966","600 Essjay Rd, Williamsville, NY 14221, USA",42.9692989,-78.7370104
"Home Box Office, Inc.","300 New Highway, Hauppauge, NY 11778","American premium channel","64","157","Radio and Television Broadcast Engineers Union Local 1212 (IBEW)","8/1/2019","-----","Merger","Plant Layoff","https://labor.ny.gov/app/warn/details.asp?id=6960","300 New Hwy, Hauppauge, NY 11788, USA",40.8217978,-73.2584863
"Home Box Office. Inc.","300 New Highway, Hauppauge, NY 11778","American premium channel","64","157","Radio and Television Broadcast Engineers Union Local 1212 (IBEW)","8/1/2019","-----","Merger","Plant Layoff","https://labor.ny.gov/app/warn/details.asp?id=6961","300 New Hwy, Hauppauge, NY 11788, USA",40.8217978,-73.2584863
"Barneys New York","575 5th Avenue, New York, NY 10017","Retail","165","165","New York New Jersey Regional Joint Board Workers United A/W SEIU","10/16/2019","11/1/2019","Economic","Plant Closing","https://labor.ny.gov/app/warn/details.asp?id=6962","575 5th Ave, New York, NY 10017, USA",40.7563205,-73.9782735
"Del Frisco's Grille","160 Walt Whitman Road, Suite 1108B, Huntington Station, NY 11746","Full service restaurant","72","72","The employees are not represented by a union.","10/9/2019","12/23/2019","Economic","Plant Closing","https://labor.ny.gov/app/warn/details.asp?id=6957","160 Walt Whitman Rd #1108B, Huntington Station, NY 11746, USA",40.8227586,-73.4097335
"Premier Paratransit LLC","940 Remsen Avenue, Brooklyn, NY 11236","Full service transportation business geared towards the physically challenged.","303","303","Local 713 International Brotherhood of Trade Unions","10/17/2019","12/31/2019","Loss of contract with the New York City Transit Authority","Plant Closing","https://labor.ny.gov/app/warn/details.asp?id=6956","940 Remsen Ave, Brooklyn, NY 11236, USA",40.6451774,-73.9120727
"Cartoon Network Enterprises","30 Hudson Yards, New York, NY 10001","Media services","7","12","The employees are not represented by a union.","10/17/2019","-----","Economic","Plant Layoff","https://labor.ny.gov/app/warn/details.asp?id=6954","30 Hudson Yards, New York, NY 10001, USA",40.7541644,-74.0009082
"EmblemHealth Services Company, LLC","55 Water St., New York, NY 10041","Health claims processing","60","1,241","Local 153 Office & Professional Employees International Union","10/16/2019","January 14, 2020","Relocation of claims processing work","Plant Unit Closing","https://labor.ny.gov/app/warn/details.asp?id=6952","55 Water St, New York, NY 10041, USA",40.7034095,-74.0097809
"ER Select LLC at St. James Mercy Hospital","411 Canisteo Street, Hornell, NY 14843","Professional Employer Organization","352","352","The employees are not represented by a union.","10/15/2019","-----","Termination of contract with St. James Mercy Hospital.","Plant Layoff","https://labor.ny.gov/app/warn/details.asp?id=6953","411 Canisteo St, Hornell, NY 14843, USA",42.3137289,-77.6604598
"DHR Restaurant Co. LLC, aka Rare Bar & Grill Murray Hill","303 Lexington Avenue, New York, NY 10016","Restaurant","47 remaining employees. The seasonal rooftop closed on 9/30/2019.","47","The employees are not represented by a union.","6/28/2019","2/29/2020","Seasonal venue","Plant Closing","https://labor.ny.gov/app/warn/details.asp?id=6948","303 Lexington Ave, New York, NY 10016, USA",40.7484439,-73.9780391
"ACCO Brands USA LLC","941 Acco Way, Ogdensburg, NY 13669","Manufacturing operations","62","106","United Steel, Paper and Forestry, Rubber, Manufacturing, Energy, Allied Industrial and Service Workers International Union, Local 4-503","9/23/2019","May 1, 2020","Termination of Manufacturing Operations","Plant Unit Closing","https://labor.ny.gov/app/warn/details.asp?id=6949","941 Acco Way, Ogdensburg, NY 13669, USA",44.7214577,-75.4353317
"Barneys New York","575 5th Avenue, New York, NY 10017","Retail","785 affected employees for all five sites","785","New York New Jersey Regional Joint Board Workers United A/W SEIU","10/16/2019","11/1/2019","Economic","Plant Closing","https://labor.ny.gov/app/warn/details.asp?id=6950","575 5th Ave, New York, NY 10017, USA",40.7563205,-73.9782735
"PRWT Services, Inc.","1150 South Avenue, Staten Island, NY 10314","Data Processing Services","117","117","The employees are not represented by a union.","9/20/2019","-----","Contracted work is being relocated by contracting entity","Plant Layoff","https://labor.ny.gov/app/warn/details.asp?id=6951","1150 South Ave, Staten Island, NY 10314, USA",40.6120216,-74.1777585
"Home Box Office. Inc. (HBO Service Corp.)","30 Hudson Yards, New York, NY 10001","American premium channel","32","1176","The employees are not represented by a union.","10/2/2019","-----","Merger","Plant Layoff","https://labor.ny.gov/app/warn/details.asp?id=6947","30 Hudson Yards, New York, NY 10001, USA",40.7541644,-74.0009082
"Port Morris Tile & Marble LP","460 West 34th Street, Ste1700, New York, NY 10001","Tile and terrazzo contactors","189","215 (total employees at both locations)","BAC Local 7 and International Brotherhood of Teamsters Local 282","10/8/2019","The closures will take place on or about January 6, 2020.","Economic","Plant Closing","https://labor.ny.gov/app/warn/details.asp?id=6944","460 W 34th St #1700, New York, NY 10001, USA",40.7541075,-73.9991227
"Eastman Kodak Company (Kodak Office)","343 State Street, Rochester, NY 14650","Photographic equipment and Supplies","1","-----","The employee is not represented by a union.","10/8/2019","-----","Economic","Plant Layoff","https://labor.ny.gov/app/warn/details.asp?id=6945","Kodak Tower, 343 State St, Rochester, NY 14650, USA",43.1608082,-77.6196475
"Transform KM LLC (Kmart Store 04726)","975 Fairmount Ave W E, Jamestown, NY 14701","Retail store","35","35","The employees are not represented by a union.","8/06/2019","November 04, 2019","Economic","Plant Closing","https://labor.ny.gov/app/warn/details.asp?id=6941","975 Fairmount Ave, Jamestown, NY 14701, USA",42.0944519,-79.2925339
"Somos Healthcare Providers, Inc.","519 Eighth Avenue, 14th Floor, New York, NY 10118","Community care and advocate community provider","130","130","The employees are not represented by a union.","10/7/2019","January 5, 2020","New York State contract expired","Plant Closing","https://labor.ny.gov/app/warn/details.asp?id=6938","519 8th Ave 14th fl, New York, NY 10018, USA",40.7534105,-73.9930178
"Eastman Kodak Company","(Kodak Office), 343 State Street","Photographic equipment and Supplies","1","-----","The employees are not represented by a union.","10/3/2019","-----","Economic","Plant Layoff","https://labor.ny.gov/app/warn/details.asp?id=6939","343 State St, Rochester, NY 14650, USA",43.1608057,-77.6196711
"CONMED Corporation and Buffalo Filter, LLC","5900 Genesee Street, Lancaster, NY 14086","Medical equipment manufacturer","6","96","The employees are not represented by a union.","10/8/2019","-----","Economic","Plant Layoff","https://labor.ny.gov/app/warn/details.asp?id=6940","5900 Genesee St, Lancaster, NY 14086, USA",42.9464039,-78.6336676
"Bonobos, Inc., a subsidiary of Walmart, Inc.","45 West 25th Street, 3rd Floor, New York, NY 10110","An e-commerce-driven apparel subsidiary of Walmart headquartered in New York City that designs and sells men's clothing.","26","220","The employees are not represented by a union.","10/7/2019","-----","Changes to its organizational structure","Plant Layoff","https://labor.ny.gov/app/warn/details.asp?id=6936","45 W 25th St 3rd Floor, New York, NY 10010, USA",40.7440796,-73.9910376
"Library Bar (at Hudson Hotel)","358 West 58th St., New York, NY 10019","Bar in the Hudson Hotel","13","13","New York Hotel & Motel Trades Council, AFL-CIO, affiliated with UNITE HERE, Local 6","8/21/2019","Closing date postponed from 10/6/2019 to 11/3/2019.","Economic","Plant Closing","https://labor.ny.gov/app/warn/details.asp?id=6937","358 W 58th St, New York, NY 10019, USA",40.7681639,-73.985069
"J & M Distributing Co., Inc. (Certo Brothers Distributing)","2500 North America Drive, West Seneca, NY 14224","Beer and Ale Merchant Wholesalers","270","270","Teamsters Local 264, I.B.T.","10/4/2019","January 23, 2020","Economic","Plant Closing","https://labor.ny.gov/app/warn/details.asp?id=6934","2500 N America Dr, West Seneca, NY 14224, USA",42.8477208,-78.7338045
"RAROC, Inc. a subsidiary of Patina Restaurant Group, LLC","45 Rockefeller Plaza, New York, NY 10111","Restaurant and Entertainment","328","328","The employees are not represented by a union.","10/3/2019","The Company's operations of the food and beverage venues will end on January 15, 2020. The Rink at Rockefeller Center and the skating house operations will end on April 19, 2020.","Lease termination","Plant Closing","https://labor.ny.gov/app/warn/details.asp?id=6935","45 Rockefeller Plaza, New York, NY 10020, USA",40.759624,-73.978733
"Taft Food Court, LLC - Restaurant Complex - Food Court (Pizza Hut, Nathan's and KFC) and Tad's Steaks Restaurants","761 Seventh Ave, New York, NY 10019","Restaurants","41","41","Tad's Steaks are represented by the UNITE HERE Local 100","10/4/2019","January 5, 2020","Economic","Plant Closing","https://labor.ny.gov/app/warn/details.asp?id=6930","761 7th Ave, New York, NY 10019, USA",40.761055,-73.9827553
"New York Health & Racquet Club","62 Cooper Square, New York, NY 10003","Health and fitness center","57","57","The employees are not represented by a union.","10/4/2019","January 6, 2020","Economic","Plant Closing","https://labor.ny.gov/app/warn/details.asp?id=6931","62 Cooper Sq, New York, NY 10003, USA",40.7291874,-73.9912442
"New York Health & Racquet Club","60 West 23rd Street, New York, NY 10010","Health and fitness center","104","104","The employees are not represented by a union.","8/1/2019","10/31/2019","Economic","Plant Closing","https://labor.ny.gov/app/warn/details.asp?id=6932","60 W 23rd St, New York, NY 10010, USA",40.7423769,-73.992369
"Queens Medical Associates, P.C.","176-60 Union Turnpike, Fresh Meadows, NY 11366","Hematology and medical oncology care for patients with cancer and blood disorders.","130","130","The employees are not represented by a union.","10/3/2019","1/15/2020","Company selling all of its assets","Plant Closing","https://labor.ny.gov/app/warn/details.asp?id=6933","176-60 Union Tpke, Fresh Meadows, NY 11366, USA",40.7257769,-73.7906743
"Bunge Management Services, Inc.","50 Main Street, 6th Floor, White Plains, NY 10606","Regulation of agricultural marketing","67","67","The employees are not represented by a union.","10/1/2019","12/31/2019","Relocation of office","Plant Closing","https://labor.ny.gov/app/warn/details.asp?id=6925","50 Main St 6th Floor, White Plains, NY 10606, USA",41.0313991,-73.7735956
"Hotel Wales","1295 Madison Avenue, New York, NY 10128","Hotel","42","42","New York Hotel & Motel Trades Council, AFL-CIO Local 6 Division A","10/1/2019","12/31/2019","Economic","Plant Closing","https://labor.ny.gov/app/warn/details.asp?id=6926","1295 Madison Ave, New York, NY 10128, USA",40.7847977,-73.9556597
"57th Street, LLC d/b/a Kingside & The Roof","124 West 57th Street, Ground Floor & 29th Floor, New York, NY 10019","Hotel","107","107","The employees are not represented by a union.","9/30/2019","1/1/2020","Sale of the hotel and lease was terminated","Plant Closing","https://labor.ny.gov/app/warn/details.asp?id=6927","124 W 57th St Ground Floor & 29th Floor, New York, NY 10019, USA",40.7646394,-73.9784473
"Isabella Visiting Care, Inc.","39 Broadway, New York, NY 10006","Licensed home care agency","569","569","1199 Service Employees International Union (SEIU)","10/1/2019","12/31/2019","Purchased by Bestcare, Inc.","Plant Closing","https://labor.ny.gov/app/warn/details.asp?id=6928","39 Broadway, New York, NY 10006, USA",40.7062925,-74.0130765
"BINS Holdings, LLC fka BASIS Independent Schools, LLC (Manhattan)","795 Columbus Avenue, New York, NY 10025","National network of PreK-12 private, secular schools","68","68","The employees are not represented by a union.","10/1/2019","12/31/2019","Acquired by Spring Education Group, Inc.","Plant Closing","https://labor.ny.gov/app/warn/details.asp?id=6929","795 Columbus Ave, New York, NY 10025, USA",40.7944461,-73.9658766
"AllianceBernstein L.P. (Phase 7)","1345 Sixth Avenue, New York, NY 10105","Providing investment management and research services","51","1,339","The employees are not represented by a union.","9/26/2019","-----","Relocation of Corporate Headquarters to Nashville, Tennessee","Plant Layoff","https://labor.ny.gov/app/warn/details.asp?id=6917","1345 6th Ave, New York, NY 10105, USA",40.7629384,-73.978958
"Merastar Insurance Company, a subsidiary of Kemper Corporation","5784 Widewaters Parkway, DeWitt, NY 13214","Insurance","50","50","The employees are not represented by a union.","9/27/2019","12/27/2019","Economic","Plant Closing","https://labor.ny.gov/app/warn/details.asp?id=6918","5784 Widewaters Pkwy, Syracuse, NY 13214, USA",43.046562,-76.0618204
"Lane Bryant, Inc.","380 Fulton Street, Brooklyn, NY 11201","Women's apparel","82","82","Retail, Wholesale and Department Store Union (RWDSU/UFCW) Local 338","9/29/2019","12/17/2019","Economic","Plant Closing","https://labor.ny.gov/app/warn/details.asp?id=6919","380 Fulton St, Brooklyn, NY 11201, USA",40.6912373,-73.9876883
"Crosstex International, Inc. (Cantel) Phase 2","10 Ranick Road, Hauppauge, NY 11788","Dental equipment distribution and manufacturing","7","88","The employees are not represented by a union.","9/20/2019","-----","Restructuring which will involve the relocation of certain dental equipment distribution and manufacturing operations to Rush, NY.","Plant Layoff","https://labor.ny.gov/app/warn/details.asp?id=6920","10 Ranick Rd, Hauppauge, NY 11788, USA",40.8090382,-73.2294463
"Newsday LLC","235 Pinelawn Road, Melville, NY 11747","Newspaper print and distribution","1","708","The affected employee is not represented by a union.","9/30/2019","September 13, 2019","Economic","Plant Unit Closing","https://labor.ny.gov/app/warn/details.asp?id=6921","235 Pinelawn Rd, Melville, NY 11747, USA",40.7639369,-73.4066025
"AEG Presents (operator of PlayStation Theater aka The Best Buy Theater)","1515 Broadway, New York, NY 10036","Broadway Theater","62","62","International Alliance of Theatrical Stage Employees (IATSE) Local 1","10/1/2019","January 1, 2020","AEG Presents, the operator of PlayStation Theater aka The Best Buy Theater, will permanantly cease all of its operations of the theater.","Plant Closing","https://labor.ny.gov/app/warn/details.asp?id=6922","1515 Broadway, New York, NY 10003, USA",40.7575262,-73.9861364
"Empire State Brewing Corp. d/b/a Heartland Brewery","350 Fifth Ave, New York, NY 10118","Restaurant","96","96","The employees are not represented by a union.","9/25/2019","January 15, 2020","Economic","Plant Closing","https://labor.ny.gov/app/warn/details.asp?id=6923","350 5th Ave, New York, NY 10118, USA",40.7482436,-73.9851073
"Edwards Vacuum LLC","6416 Inducon Drive West, Sanborn, NY 14132","Appliance Manufacturer","65","104","The employees are not represented by a union.","10/1/2019","Manufacturing to be shut down 3/31/2020 with some staff remaining until 9/30/2020 to assist in the transition.","Plant Manufacturing Unit Relocating","Plant Unit Closing","https://labor.ny.gov/app/warn/details.asp?id=6924","6416 Inducon Dr W, Sanborn, NY 14132, USA",43.11768,-78.921903
"Warner Media, LLC (formerly Time Warner Inc.)","30 Hudson Yards, New York, NY 10001","Media services","49","199","The employees are not represented by a union.","9/30/2019","-----","Merger","Plant Layoff","https://labor.ny.gov/app/warn/details.asp?id=6916","30 Hudson Yards, New York, NY 10001, USA",40.7541644,-74.0009082
"Concorde Medical Group PLLC","316 East 30th Street, Floor 2, New York, NY 10116","Home Health Care","115","115","The employees are not represented by a union.","9/23/2019","12/31/2019","Economic","Plant Closing","https://labor.ny.gov/app/warn/details.asp?id=6915","316 E 30th St Floor 2, New York, NY 10016, USA",40.7417171,-73.9769371
"ACCO Brands USA LLC","941 Acco Way, Ogdensburg, NY 13669","Manufacturing operations","62","106","United Steel, Paper and Forestry, Rubber, Manufacturing, Energy, Allied Industrial and Service Workers International Union, Local 4-503","9/23/2019","May 1, 2020","Termination of Manufacturing Operations","Plant Unit Closing","https://labor.ny.gov/app/warn/details.asp?id=6914","941 Acco Way, Ogdensburg, NY 13669, USA",44.7214577,-75.4353317
"Gourmet Management Corp. (TGI Fridays, KFC, Taco Bell, Pizza Hut, Haagen Dazs,  Tim Hortons & Beer Cart Restaurants located at the Restaurant Complex on  the Amtrak level of Penn Station)","560 Fifth Avenue, 3rd Floor, New York, NY 10036","Restaurants","46","46","The employees are not represented by a union.","7/13/2018","1/1/2020","Expiration of lease","Plant Closing","https://labor.ny.gov/app/warn/details.asp?id=6909","560 5th Ave 3rd Floor, New York, NY 10036, USA",40.7560789,-73.9794056
"Pet Partners, LLC","5 Mountain Ledge Drive, Wilton, NY 12831","Animal hospital","49","49","The employees are not represented by a union.","9/20/2019","January 24, 2020","Economic","Plant Closing","https://labor.ny.gov/app/warn/details.asp?id=6908","5 Mountain Ledge Dr, Gansevoort, NY 12831, USA",43.1319903,-73.7681026
"General Parts Distribution, LLC d/b/a Carquest Auto Parts","215 Business Park Drive, Armonk, NY 10504","Auto parts distribution","80","80","Teamsters Local 202","9/18/2019","December 31, 2019","Economic","Plant Closing","https://labor.ny.gov/app/warn/details.asp?id=6907","215 Business Park Dr, Armonk, NY 10504, USA",41.1118937,-73.7130307
"Home Box Office. Inc. (HBO Service Corp.)","30 Hudson Yards, New York, NY 10001","American premium channel owned by the Home Box Office, Inc.","15","1176","The employees are not represented by a union.","9/9/2019","-----","Merger","Plant Layoff","https://labor.ny.gov/app/warn/details.asp?id=6905","30 Hudson Yards, New York, NY 10001, USA",40.7541644,-74.0009082
"American Technical Ceramics Corp","One Norden Lane, Huntington Station, NY 11746","Manufacturer of capacitors","24","157","The employees are not represented by a union.","6/24/2019","September 30, 2020","Economic","Plant Closing","https://labor.ny.gov/app/warn/details.asp?id=6906","1 Norden Ln, Huntington Station, NY 11746, USA",40.8398638,-73.4255804
"WestRock CP, LLC","28 Park Drive, Amsterdam, NY 12010","American corrugated packaging company.","52","52","Amalgamated Lithographers of America, Local 259","6/11/2019","On or before 11/8/2019","Economic","Plant Closing","https://labor.ny.gov/app/warn/details.asp?id=6904","28 Park Dr, Amsterdam, NY 12010, USA",42.9268462,-74.1752561
"Sure Winner Foods","102 Farrell Rd, Syracuse, NY 13209","Dairy Product (except Dried or Canned) merchant Wholesalers","106","To be determined","The employees are not represented by a union.","9/17/2019","-----","Business partner’s elimination of direct store deliveries","Plant Closing","https://labor.ny.gov/app/warn/details.asp?id=6903","102 Farrell Rd, Syracuse, NY 13209, USA",43.116055,-76.26828
"Briad Restaurant Group LLC dba Fridays","1780 East Gun Hill Rd, Bronx, NY 10469","Restaurant","62","62","The employees are not represented by a union.","9/15/2019","12/22/2019","Economic","Plant Closing","https://labor.ny.gov/app/warn/details.asp?id=6901","1780 E Gun Hill Rd, The Bronx, NY 10469, USA",40.8632116,-73.8343005
"American Precision Industries, Inc.","45 Hazelwood Drive, Amherst, NY 14228","Transmission Company","79","79","International United Automobile, Aerospace and Agricultural Implement Workers of America (UAW) Local Union No. 1416","5/1/2019","10/18/2019","Economic","Plant Closing","https://labor.ny.gov/app/warn/details.asp?id=6899","45 Hazelwood Dr, Buffalo, NY 14228, USA",43.0280555,-78.8118943
"Premier Fixtures, LLC","400 Oser Avenue, Suite 350, Hauppauge, NY 11788","Custom architectural woodwork & millwork manufacturing","44","44","The employees are not represented by a union.","9/11/2019","September 11, 2019","Economic","Plant Closing","https://labor.ny.gov/app/warn/details.asp?id=6900","400 Oser Ave #350, Hauppauge, NY 11788, USA",40.8184244,-73.2666652
"Catholic Guardian Services","140 Casals Place, Co-Op City, Apt. 21 H, Bronx, NY 10475","Human services non-profit organization with programs that help a large needy population in the New York metropolitan area.","38","197 (total employees at all sites)","United Food & Commercial Workers’ Union (UFCW) Local 888","9/9/2019","December 8, 2019","Discontinuation of operations","Plant Closing","https://labor.ny.gov/app/warn/details.asp?id=6896","140 Casals Pl Apt 21b, The Bronx, NY 10475, USA",40.8783513,-73.8244122
"Goldman, Sachs & Co. LLC","200 West Street, New York, NY 10282","Global investment banking","2","8,963","The employees are not represented by a union.","May 9, 2019 through June 21, 2019","-----","Economic","Plant Layoff","https://labor.ny.gov/app/warn/details.asp?id=6897","200 West Street, New York, NY 10282, USA",40.7148544,-74.0144968
"IntraPac International LLC","4 Plant Street, Plattsburgh, NY 12901","Plastic Production Manufacturer","83","83","Teamsters Local 687","9/12/2019","9/12/2019","Moving production to Mebane, NC facility","Plant Closing","https://labor.ny.gov/app/warn/details.asp?id=6895","4 Plant St, Plattsburgh, NY 12901, USA",44.6757281,-73.4674877
"F.G.W.J. Food Corp.","427 East 14th Street, New York, NY 10009","Supermarket","73","73","United Food & Commercial Workers (UFCW) Local 342, and Retail, Wholesale and Department Store Union Local 338","9/10/2019","12/10/2019","Economic","Plant Closing","https://labor.ny.gov/app/warn/details.asp?id=6893","427 E 14th St, New York, NY 10009, USA",40.7309381,-73.9812153
"Deutsche Bank","60 Wall Street, New York, NY 10005","Banking","104","4,800","The employees are not represented by a union.","9/6/2019","-----","Economic","Plant Layoff","https://labor.ny.gov/app/warn/details.asp?id=6890","60 Wall St, New York, NY 10005, USA",40.7062255,-74.0083912
"Damiano Corp of South Sutphin dba McDonald's","90-67 Sutphin Blvd., Jamaica, NY 11435","Restaurant","30","30","The employees are not represented by a union.","8/30/2019","11/30/2019","Economic","Plant Closing","https://labor.ny.gov/app/warn/details.asp?id=6891","90-67 Sutphin Blvd, Jamaica, NY 11435, USA",40.701211,-73.807654
"Home Box Office, Inc.","30 Hudson Yards, New York, NY 10001","American premium channel","3","-----","The employees are not represented by a union.","8/15/2019","-----","Merger","Plant Layoff","https://labor.ny.gov/app/warn/details.asp?id=6892","30 Hudson Yards, New York, NY 10001, USA",40.7541644,-74.0009082
"IPT LLC dba Paylock","3717 Irwin Ave, Bronx, NY 10463","Provides unique parking management products and services","15","15","The employees are not represented by a union.","8/29/2019","-----","Loss of contract with the city of New York","Plant Layoff","https://labor.ny.gov/app/warn/details.asp?id=6889","3717 Irwin Ave, The Bronx, NY 10463, USA",40.8866016,-73.9034835
"Johnson and Hoffman LLC","40 Voice Road, Carle Place, NY 11514","Metal stamping service","63","63","The employees are not represented by a union.","9/4/2019","November 4, 2019","Economic","Plant Closing","https://labor.ny.gov/app/warn/details.asp?id=6887","40 Voice Rd, Carle Place, NY 11514, USA",40.7457498,-73.6225297
"WS Packaging Group, Inc.","29 Jetview Drive, Rochester, NY 14624","Produce high-quality label and packaging products","38","38","The employees are not represented by a union.","9/4/2019","December 31, 2019","Economic","Plant Closing","https://labor.ny.gov/app/warn/details.asp?id=6888","29 Jetview Dr, Rochester, NY 14624, USA",43.1113677,-77.6982624
"Library Bar (at Hudson Hotel)","358 West 58th St., New York, NY 10019","Bar in the Hudson Hotel","10","10","New York Hotel & Motel Trades Council, AFL-CIO, affiliated with UNITE HERE, Local 6","8/21/2019","10/6/2019","Economic","Plant Closing","https://labor.ny.gov/app/warn/details.asp?id=6886","358 W 58th St, New York, NY 10019, USA",40.7681639,-73.985069
"Transform KM LLC (Kmart Unit #04034)","2803 Brewerton Rd, Mattydale, NY 13211","Retail store","55","55","The employees are not represented by a union.","8/29/2019","November 27, 2019","Economic","Plant Closing","https://labor.ny.gov/app/warn/details.asp?id=6883","2803 Brewerton Rd, Syracuse, NY 13211, USA",43.1060347,-76.1481209
"Transform KM LLC (Kmart Unit #03415)","1001 Hertel Avenue, Buffalo, NY 14216","Retail store","58","58","The employees are not represented by a union.","8/29/2019","November 27, 2019","Economic","Plant Closing","https://labor.ny.gov/app/warn/details.asp?id=6884","1001 Hertel Ave, Buffalo, NY 14207, USA",42.9458436,-78.8706863
"Transform KM LLC (Kmart Unit #09414)","Rte 118 355 Downing Dr., Yorktown Heights, NY 10598","Retail store","41","41","The employees are not represented by a union.","8/29/2019","November 27, 2019","Economic","Plant Closing","https://labor.ny.gov/app/warn/details.asp?id=6885","355 Downing Dr, Yorktown Heights, NY 10598, USA",41.2726777,-73.78327
"Eastern Niagara Hospital","2600 Williams St., Newfane, NY 14180","Hospital","42","42","New York State Nurses Association (NYSNA) and Service Employees International Union (SEIU)","8/29/2019","November 29, 2019","Economic","Plant Closing","https://labor.ny.gov/app/warn/details.asp?id=6882","2600 William St, Newfane, NY 14108, USA",43.2887705,-78.7091341
"La Loggia LLC d/b/a Tarry Lodge Port Chester","18 Mill Street, Port Chester, NY 10573","Restaurant","50","50","The employees are not represented by a union.","8/23/2019","11/22/2019","Due to construction occurring on the premises.","Plant Closing","https://labor.ny.gov/app/warn/details.asp?id=6881","18 Mill St, Port Chester, NY 10573, USA",41.0040252,-73.6597374
"MarineMax Services, Inc.","846 South Wellwood Ave., Lindenhurst, NY 11757","Recreational boat and yacht dealer","","","The employees are not represented by a union.","8/27/2019","","","Plant Closing","https://labor.ny.gov/app/warn/details.asp?id=6879","846 S Wellwood Ave, Lindenhurst, NY 11757, USA",40.6699274,-73.3573532
"Research Foundation of The City University of New York Mental Health Services Corps","(various NYC sites), 230 West 41st Street","Home care services","265","265","The employees are not represented by a union.","8/19/2019","12/31/2019","Transferring the Mental Health Services Corps from Hunter College, The City University of New York to the New York City Health and Hospitals Corporation.","Plant Closing","https://labor.ny.gov/app/warn/details.asp?id=6878","230 W 41st St Second Floor, New York, NY 10036, USA",40.755716,-73.988857
"Metropolitan Jewish Home Care, Inc. dba MJHS Home Care","6323 Seventh Avenue, Brooklyn, NY 11220","Home care services","28","170","The employees are not represented by a union.","8/19/2019","-----","Economic","Plant Layoff","https://labor.ny.gov/app/warn/details.asp?id=6876","6323 7th Ave, Brooklyn, NY 11220, USA",40.6346085,-74.013359
"Gourmet Management Corp. (TGI Fridays, KFC, Taco Bell, Pizza Hut, Haagen Dazs, Tim Hortons & Beer Cart Restaurants located at the Restaurant Complex on the Amtrak level of Penn Station)","560 Fifth Avenue, 3rd Floor, New York, NY 10036","Restaurants","45","45","The employees are not represented by a union.","7/13/2018","10/31/2019","Expiration of lease","Plant Closing","https://labor.ny.gov/app/warn/details.asp?id=6877","560 5th Ave 3rd Floor, New York, NY 10036, USA",40.7560789,-73.9794056
"Nestle USA, Inc. (and Nestle Dreyer's Ice Cream Company)","565 Broadhollow Road, Farmingdale, NY 11735","Packaged Foods","39","39","The employees are not represented by a union.","8/16/2019","12/31/2019","Shifting from direct-store delivery (DSD) to a warehouse distribution model for its frozen pizza and ice cream businesses.","Plant Closing","https://labor.ny.gov/app/warn/details.asp?id=6875","565 Broadhollow Rd, Farmingdale, NY 11735, USA",40.7193053,-73.4248351
"Transform KM LLC (Kmart Unit 04871)","2280 North Ocean Avenue, Farmingville, NY 11738","Retail store","91","91","The employees are not represented by a union.","8/15/2019","11/13/2019","Economic","Plant Closing","https://labor.ny.gov/app/warn/details.asp?id=6873","2280 N Ocean Ave, Farmingville, NY 11738, USA",40.8273029,-73.0237192
"RNN News, LLC (Verizon Corporate Services Group Inc.'s FIOS1 News network)","800 Westchester Avenue, Rye Brook, NY 10573","Provides news programming and support services for Verizon Corporate Services Group Inc.’s FiOSl News network","145","145","The employees are not represented by a union.","8/16/2019","11/15/2019","Expiration of contract","Plant Closing","https://labor.ny.gov/app/warn/details.asp?id=6874","800 Westchester Avenue, 800 Westchester Ave, Rye Brook, NY 10573, USA",41.0064122,-73.6902253
"The Service Companies at Innside New York","70-74 Morningside Drive, New York, NY 10027","Housekeeping Services","66","66","The employees are not represented by a union.","8/1/2019","August 13, 2019","Termination of housekeeping services agreement","Plant Closing","https://labor.ny.gov/app/warn/details.asp?id=6872","70 Morningside Dr #74, New York, NY 10027, USA",40.8073255,-73.9588324
"Spruce & Bond (HBG employees)","25 Bond Street, New York, NY 10012","Wax, Laser, Brows in a hi-tech studio","6","-----","The employees are not represented by a union.","7/18/2019","7/20/2019","Economic","Plant Closing","https://labor.ny.gov/app/warn/details.asp?id=6870","25 Bond St, New York, NY 10012, USA",40.7261542,-73.9938152
"PAE Field Offices Support Services (FOSS)","Jacob Javits Federal Building, 26 Federal Plaza, New York, NY 10278","Support and professional services focused on national security customers.","97","97","The employees are not represented by a union.","8/9/2019","December 20, 2019","Loss of contract","Plant Closing","https://labor.ny.gov/app/warn/details.asp?id=6871","26 Federal Plaza, New York, NY 10278, USA",40.7154857,-74.0041471
"Cayuga Operating Company LLC (Heorot Power)","228 Cayuga Drive, Lansing, NY 14882","Power station","44","44","International Brotherhood of Electrical Workers, Local 10","7/31/2019","To be determined","Economic","Plant Closing","https://labor.ny.gov/app/warn/details.asp?id=6866","228 Cayuga Dr, Lansing, NY 14882, USA",42.6052792,-76.6157492
"Community Development Institute Head Start","216 Beach 87th Street, Rockaway Beach, NY 11693","Pre-School","0","63","The employees are not represented by a union.","6/27/2019","8/31/2019","Economic","Plant Closing","https://labor.ny.gov/app/warn/details.asp?id=6867","216 Beach 87th St, Far Rockaway, NY 11693, USA",40.5880813,-73.8119929
"L3 Harris Technologies","600 Third Avenue, New York, NY 10016","A global defense technology leader","33","117","The employees are not represented by a union.","7/29/2019","-----","Economic","Plant Layoff","https://labor.ny.gov/app/warn/details.asp?id=6864","600 3rd Ave, New York, NY 10016, USA",40.7493238,-73.9759092
"Goldman, Sachs & Co. LLC","200 West Street, New York, NY 10282","","10","","The employees are not represented by a union.","4/18/2019 through 6/19/2019","-----","Economic","Plant Layoff","https://labor.ny.gov/app/warn/details.asp?id=6865","200 West Street, New York, NY 10282, USA",40.7148544,-74.0144968
"New York Health & Racquet Club","60 West 23rd Street, New York, NY 10010","Health and fitness center","104","104","The employees are not represented by a union.","8/1/2019","10/31/2019","Economic","Plant Closing","https://labor.ny.gov/app/warn/details.asp?id=6863","60 W 23rd St, New York, NY 10010, USA",40.7423769,-73.992369
"Turner Broadcasting System, Inc.","501 West 30th Street, New York, NY 10001","Company research & investing information","2","1,725","The employees are not represented by a union.","7/16/2019","-----","Economic","Plant Layoff","https://labor.ny.gov/app/warn/details.asp?id=6860","501 W 30th St, New York, NY 10001, USA",40.7525422,-74.0011081
"The Kildonan School","425 Morse Hill Road, Amenia, NY 12501","School","59","59 (includes full-time and part-time employees)","The employees are not represented by a union.","7/16/2019","August 31, 2019 (Administrative and maintenance staff will work through at least September 30, 2019)","Economic","Plant Closing","https://labor.ny.gov/app/warn/details.asp?id=6861","425 Morse Hill Rd, Amenia, NY 12501, USA",41.893216,-73.5542
"Crystal Run Health Plan, LLC (Phase 2)","109 Rykowski Lane, Middletown, NY 10941","Health Plans","3","26","The employees are not represented by a union.","7/29/2019","To be determined","Economic","Plant Closing","https://labor.ny.gov/app/warn/details.asp?id=6862","109 Rykowski Ln, Middletown, NY 10941, USA",41.4512684,-74.3480251
"Dean & DeLuca Inc.","29-35 9th Avenue, New York, NY 10014","Gourmet foods and fine food gifts","35","35","The employees are not represented by a union.","7/29/2019","7/28/2019","Economic","Plant Closing","https://labor.ny.gov/app/warn/details.asp?id=6858","29-35 9th Ave, New York, NY 10014, USA",40.7406093,-74.0058785
"Dean & DeLuca Inc.","1150 Madison Avenue, New York, NY 10028","Gourmet foods and fine food gifts","58","58","The employees are not represented by a union.","6/28/2019","6/30/2019","Loss of lease for the premises","Plant Closing","https://labor.ny.gov/app/warn/details.asp?id=6859","1150 Madison Ave, New York, NY 10028, USA",40.7803648,-73.9594148
"Plated Fulfillment Center","511 Barry Street, Bronx, NY 10474","Prepare and distribute meal kits","98","98","The employees are not represented by a union.","7/19/2019","10/12/2019","Relocation of operations to Totowa, New Jersey","Plant Closing","https://labor.ny.gov/app/warn/details.asp?id=6856","511 Barry St, The Bronx, NY 10474, USA",40.8095406,-73.8961549
"Community Development Institute Head Start (CDI HS)","216 Beach 87th Street, Rockaway Beach, NY 11693","The program provides early childhood education, nutrition, family education and services for children with disability/special needs, and supports families in attaining services in health, dental, disability, and mental health services.","63","63","The employees are not represented by a union.","6/27/2019","8/31/2019","Loss of grant. CDI HS was assigned as the short-term interim operator of the Rockaway Beach, NY Head Start program.","Plant Closing","https://labor.ny.gov/app/warn/details.asp?id=6854","216 Beach 87th St, Far Rockaway, NY 11693, USA",40.5880813,-73.8119929
"DB USA Core Corporation (Deutsche Bank)","60 Wall Street, New York, NY 10005","","","","The employees are not represented by a union.","7/18/2019","","","Plant Layoff","https://labor.ny.gov/app/warn/details.asp?id=6855","60 Wall St, New York, NY 10005, USA",40.7062255,-74.0083912
"CallVista LLC","530 Summit Point Drive, Henrietta, NY 14467","Call center","27","27","The employees are not represented by a union.","4/15/2019","11/29/2019","Economic","Plant Closing","https://labor.ny.gov/app/warn/details.asp?id=6852","530 Summit Point Dr, Henrietta, NY 14467, USA",43.0545048,-77.6522702
"ClickSpark LLC","530 Summit Point Drive, Henrietta, NY 14467","Internet marketing service","6","6","The employees are not represented by a union.","4/15/2019","11/29/2019","Economic","Plant Closing","https://labor.ny.gov/app/warn/details.asp?id=6853","530 Summit Point Dr, Henrietta, NY 14467, USA",43.0545048,-77.6522702
"Saks Fifth Avenue OFF 5th","2100 Bartow Avenue, Bronx, NY 10475","","","","The employees are not represented by a union.","7/16/2019","","","Plant Closing","https://labor.ny.gov/app/warn/details.asp?id=6851","2100 Bartow Ave, The Bronx, NY 10475, USA",40.8682092,-73.8248498
"Transform SR LLC (Sears Full Line Store Unit 01624)","283 Platinum Ave, Staten Island, NY 10314","Retail Store","39","39","The employees are not represented by a union.","7/11/2019","October 9, 2019","Economic","Plant Closing","https://labor.ny.gov/app/warn/details.asp?id=6847","283 Platinum Ave, Staten Island, NY 10314, USA",40.5800481,-74.1664921
"Amneal Pharmaceuticals, LLC","75 Adams Avenue, Hauppauge, NY 11788","Pharmaceutical company","18","220","The employees are not represented by a union.","7/10/2019","12/31/2020","Economic","Plant Closing","https://labor.ny.gov/app/warn/details.asp?id=6848","75 Adams Ave, Hauppauge, NY 11788, USA",40.8183021,-73.2549737
"Dry Cycle Brands, LLC dba FlyCleaners","4700 Northern Blvd., Long Island City, NY 11101","Pickup, delivery, dry cleaning, and laundry services.","71","71","The employees are not represented by a union.","6/3/2019","July 5, 2019","Economic","Plant Closing","https://labor.ny.gov/app/warn/details.asp?id=6849","4700 Northern Blvd, Long Island City, NY 11101, USA",40.7532497,-73.9157739
"Turner Broadcasting Sales Inc.","30 Hudson Yards, New York, NY 10001","Company research & investing information","14","620","The employees are not represented by a union.","7/10/2019","-----","Economic","Plant Layoff","https://labor.ny.gov/app/warn/details.asp?id=6846","30 Hudson Yards, New York, NY 10001, USA",40.7541644,-74.0009082
"Barclays Services Corp. (Chief Operating Office and Functions  teams)","745 7th Avenue, New York, NY 10019","","","","The employees are not represented by a union.","7/8/2019","","","Plant Layoff","https://labor.ny.gov/app/warn/details.asp?id=6844","745 7th Ave, New York, NY 10019, USA",40.7604859,-73.9831465
"AllianceBernstein L.P. (Phase 6)","1345 Sixth Avenue, New York, NY 10105","","","","The employees are not represented by a union.","7/10/2019","","","Plant Layoff","https://labor.ny.gov/app/warn/details.asp?id=6845","1345 6th Ave, New York, NY 10105, USA",40.7629384,-73.978958
"Deutsche Bank Securities  Inc., DB USA Core Corporation, and Deutsche Bank AG, New York Branch, and DB  USA Corp. (together, ""Deutsche Bank"")","60 Wall Street, Brooklyn, NY 10005","","","","The employees are not represented by a union.","7/8/2019","","","Plant Unit Closing","https://labor.ny.gov/app/warn/details.asp?id=6843","60 Wall St, New York, NY 10005, USA",40.7062255,-74.0083912
"Empire Paratransit Corp.","880 Alabama Avenue, Brooklyn, NY 11207","Transportation service provider","325","325","United Service Workers Union, Local 355","7/8/2019","August 31, 2019","New York Transit Authority terminated Empire Paratransit Corp.'s contract as of July 2, 2019.","Plant Closing","https://labor.ny.gov/app/warn/details.asp?id=6841","880 Alabama Ave, Brooklyn, NY 11207, USA",40.6548178,-73.891706
"Columbia University (Early Head Start Program)","4467 Broadway, New York, NY 10040","","","","1199, SEIU United  Healthcare Workers East (one employee is represented by the union)","7/1/2019","","","Plant Closing","https://labor.ny.gov/app/warn/details.asp?id=6842","4467 Broadway, New York, NY 10040, USA",40.8574515,-73.9325943
"Dean & DeLuca Inc.","1150 Madison Avenue, New York, NY 10028","Gourmet foods and fine food gifts","61","61","The employees are not represented by a union.","6/28/2019","6/30/2019","Loss of lease for the premises","Plant Closing","https://labor.ny.gov/app/warn/details.asp?id=6840","1150 Madison Ave, New York, NY 10028, USA",40.7803648,-73.9594148
"Advance Transit Co., Inc.","1340 Lafayette Avenue, Bronx, NY 10474","Provides transportation throughout the five boroughs of NYC for people with disabilities.","143","143","International Brotherhood of Teamsters, Local 553","7/1/2019","9/30/2019","Loss of contract with the Metropolitan Transit Authority – New York City Transit Authority","Plant Closing","https://labor.ny.gov/app/warn/details.asp?id=6838","1340 Lafayette Ave, The Bronx, NY 10474, USA",40.8166257,-73.8848157
"Crosstex International, Inc. (Cantel)","10 Ranick Road, Hauppauge, NY 11788","Dental equipment distribution and manufacturing","5","99","The employees are not represented by a union.","6/28/2019","-----","Restructuring which will involve the relocation of certain dental equipment distribution and manufacturing operations to Rush, NY.","Plant Layoff","https://labor.ny.gov/app/warn/details.asp?id=6836","10 Ranick Rd, Hauppauge, NY 11788, USA",40.8090382,-73.2294463
"JPMorgan Asset Management Holdings Inc. (JPMorgan Chase & Co.)","40 W. 57th Street, New York, NY 10019","Finance","52","106","The employees are not represented by a union.","7/1/2019","-----","Restructuring","Plant Layoff","https://labor.ny.gov/app/warn/details.asp?id=6837","40 W 57th St, New York, NY 10019, USA",40.763705,-73.9762452
"LimeLife USA LLC d/b/a Limelife by Alcone","(Warehouse), 8 Westchester Plaza","Retails chemical-free, natural, organic skin care, professional makeup","39","39","The employees are not represented by a union.","6/28/2019","10/1/2019","Economic","Plant Closing","https://labor.ny.gov/app/warn/details.asp?id=6832","8 Westchester Plaza, Elmsford, NY 10523, USA",41.0698197,-73.8102097
"Rare Chelsea Restaurant Group, LLC, aka Rare Bar & Grill Chelsea","152 West 26th Street, New York, NY 10001","Restaurant","79","79","The employees are not represented by a union.","6/28/2019","9/30/2019","Economic","Plant Closing","https://labor.ny.gov/app/warn/details.asp?id=6833","152 W 26th St, New York, NY 10001, USA",40.7455351,-73.9937764
"DHR Restaurant Co. LLC, aka Rare Bar & Grill Murray Hill","303 Lexington Avenue, New York, NY 10016","Restaurant","106","106","The employees are not represented by a union.","6/28/2019","9/30/2019","Seasonal venue impacting the rooftop.","Plant Closing","https://labor.ny.gov/app/warn/details.asp?id=6834","303 Lexington Ave, New York, NY 10016, USA",40.7484439,-73.9780391
"Warner Media, LLC (formerly Time Warner Inc.)","One Time Warner Center, New York, NY 10019","Media services","63","0","The employees are not represented by a union.","Notices were provided between 12/5/2018 and 6/27/2019","-----","Merger","Plant Layoff","https://labor.ny.gov/app/warn/details.asp?id=6835","10 Columbus Cir, New York, NY 10019, USA",40.7685068,-73.9831349
"Banfi Products Corporation (Warehouse)","1111 Cedar Swamp Road, Glen Head, NY 11545","Wine and Distilled Alcoholic Beverage Merchant Wholesalers","1","64","The employees are not represented by a union.","6/18/2019","September 15, 2019","Economic","Plant Closing","https://labor.ny.gov/app/warn/details.asp?id=6830","1111 Cedar Swamp Rd, Glen Head, NY 11545, USA",40.8273175,-73.5952346
"Four Seasons Restaurant","42 East 49th Street, New York, NY 10007","Restaurant","85","85","UNITE HERE, Local 100","6/20/2019","6/11/2019","Economic","Plant Closing","https://labor.ny.gov/app/warn/details.asp?id=6831","42 E 49th St, New York, NY 10017, USA",40.7570443,-73.9756624
"American Technical Ceramics Corp","One Norden Lane, Huntington Station, NY 11746","Manufacturer of capacitors","24","157","The employees are not represented by a union.","6/24/2019","September 30, 2020","Economic","Plant Closing","https://labor.ny.gov/app/warn/details.asp?id=6826","1 Norden Ln, Huntington Station, NY 11746, USA",40.8398638,-73.4255804
"Ivy Enterprises, Inc.","3 Seaview Blvd, Port Washington, NY 11050","","","","The employees are not represented by a union.","6/21/2019","","Relocated to New Jersey","Plant Closing","https://labor.ny.gov/app/warn/details.asp?id=6827","3 Seaview Blvd, Port Washington, NY 11050, USA",40.8154649,-73.6575514
"Kiss Products, Inc. (Warehouse)","57 Seaview Blvd, Port Washington, NY 11050","","54","196","The employees are not represented by a union.","6/18/2019","September 23, 2019","Relocated to New Jersey","Plant Closing","https://labor.ny.gov/app/warn/details.asp?id=6828","57 Seaview Blvd, Port Washington, NY 11050, USA",40.8149162,-73.661531
"CONMED Corporation and Buffalo Filter, LLC","5900 Genesee Street, Lancaster, NY 14086","Medical equipment manufacturer","24","82","The employees are not represented by a union.","6/17/2019","-----","Economic","Plant Layoff","https://labor.ny.gov/app/warn/details.asp?id=6823","5900 Genesee St, Lancaster, NY 14086, USA",42.9464039,-78.6336676
"Jabil Inc.","2455 South Road, Bldg 002-2, Core Office 1, Poughkeepsie, NY 12601","Global manufacturing services company.","83","83","The affected workers are not represented by a union.","1/22/2018","July 1, 2019","Economic","Plant Closing","https://labor.ny.gov/app/warn/details.asp?id=6824","2455 South Rd Bldg 002-2, Poughkeepsie, NY 12601, USA",41.6536586,-73.9304375
"Home Health Services of WJCS, Inc.","845 North Broadway, White Plains, NY 10603","Personal care aides and certified home health care aides","73","685","The employees are not represented by a union.","6/17/2019","-----","Reduction in home health aide services.","Plant Layoff","https://labor.ny.gov/app/warn/details.asp?id=6821","845 N Broadway, White Plains, NY 10603, USA",41.0610139,-73.7664432
"M. Slavin & Sons, Ltd.","800 Food Center Drive, Unit 66, Bronx, NY 10474","Wholesale distribution fresh fish","48","48","United Seafood Workers Smoked Fish & Cannery Union Local 359 of Greater New York & Vicinity","6/1/2019","6/1/2019","Economic","Plant Closing","https://labor.ny.gov/app/warn/details.asp?id=6818","800 Food Center Dr #66, The Bronx, NY 10474, USA",40.8025758,-73.8753005
"Goldman, Sachs & Co. LLC","200 West Street, New York, NY 10282","Global investment banking","16","9,352","The employees are not represented by a union.","April 1, 2019 through June 4, 2019","-----","Economic","Plant Layoff","https://labor.ny.gov/app/warn/details.asp?id=6819","200 West Street, New York, NY 10282, USA",40.7148544,-74.0144968
"WNY Logistics LLC","Warehouse, 1587 Haskell Road","Warehouse - Frozen, parishable, and non-parishable foods","134","214","The employees are not represented by a union.","6/13/2019","9/29/2019","Warehousing duties will be shifted to DuBois, PA.","Plant Unit Closing","https://labor.ny.gov/app/warn/details.asp?id=6820","1587 Haskell Rd, Olean, NY 14760, USA",42.070144,-78.3841995
"Hillside Children's Center (Hillside Family of Agencies)","Varick Residential Treatment Campus, 4887 State Route 96A","Provider of care for youth and families with a wide range of emotional and behavioral challenges.","244","244","The employees are not represented by a union.","6/12/2019","9/10/2019","Recognized national and statewide trends impacting the field of child-and-family services and the number of beds in residential treatment facilities.","Plant Closing","https://labor.ny.gov/app/warn/details.asp?id=6817","4887 NY-96A, Romulus, NY 14541, USA",42.7862322,-76.8980047
"Amsterdam Printing & Litho, Inc. (Web Graphics)","428 Corinth Road, Queensbury, NY 12804","Graphic Design Services","88","88","The employees are not represented by a union.","6/13/2019","September 13, 2019","Economic","Plant Closing","https://labor.ny.gov/app/warn/details.asp?id=6816","428 Corinth Rd, Queensbury, NY 12804, USA",43.2956365,-73.7019962
"AllianceBernstein L.P. (Phase 5)","1345 Sixth Avenue, New York, NY 10105","Providing investment management and research services","24","1,461","The employees are not represented by a union.","6/6/2019","-----","Relocation of Corporate Headquarters to Nashville, Tennessee","Plant Layoff","https://labor.ny.gov/app/warn/details.asp?id=6813","1345 6th Ave, New York, NY 10105, USA",40.7629384,-73.978958
"WestRock CP, LLC","28 Park Drive, Amsterdam, NY 12010","American corrugated packaging company.","57","57","Amalgamated Lithographers of America, Local 259","6/11/2019","9/10/2019","Economic","Plant Closing","https://labor.ny.gov/app/warn/details.asp?id=6814","28 Park Dr, Amsterdam, NY 12010, USA",42.9268462,-74.1752561
"John Hassall, LLC.","609 Cantiague Rock Road, Westbury, NY 11590","Manufacturing custom designed metal parts & fasteners","39","39","The employees are not represented by a union.","6/11/2019","November 30, 2019","Economic","Plant Closing","https://labor.ny.gov/app/warn/details.asp?id=6815","609 Cantiague Rock Rd, Westbury, NY 11590, USA",40.7748622,-73.5540166
"Dry Cycle Brands, LLC dba FlyCleaners","4700 Northern Blvd., Long Island City, NY 11101","Pickup, delivery, dry cleaning, and laundry services.","116","116","The employees are not represented by a union.","6/3/2019","July 5, 2019","Economic","Plant Closing","https://labor.ny.gov/app/warn/details.asp?id=6809","4700 Northern Blvd, Long Island City, NY 11101, USA",40.7532497,-73.9157739
"Transform SR LLC (Full Line Store Unit 01733)","Rte 87 (NY St) & Cross Ct Pkwy, Yonkers, NY 10704","Retail Store","170","170","The employees are not represented by a union.","6/3/2019","September 1, 2019","Economic","Plant Closing","https://labor.ny.gov/app/warn/details.asp?id=6810","87 Mall Walk, Yonkers, NY 10704, USA",40.927985,-73.85118
"Lucky Strike Entertainment, LLC","One Crossgates Mall Road, Albany, NY 12203","Large  entertainment center with bowling, a game room, live music & a modern  American gastropub.","65","65","The employees are not represented by a union.","6/5/2019","6/28/2019","Economic","Plant Closing","https://labor.ny.gov/app/warn/details.asp?id=6811","1 Crossgates Mall Rd, Albany, NY 12203, USA",42.6894808,-73.8507415
"Steiner Sports Memorabilia, Inc.","145 Huguenot Street, New Rochelle, NY 10801","Autographed  sports collectibles from the greatest teams and the best athletes in sports.","","","The employees are not represented by a union.","6/5/2019","","","Plant Closing","https://labor.ny.gov/app/warn/details.asp?id=6812","145 Huguenot St, New Rochelle, NY 10801, USA",40.9136082,-73.7793174
"Imperial Distributors, Inc. (at Stop and Shop stores in New York State)","3106 Farrington Street, Flushing, NY 11354","Merchandising products in Grocery Stores","42 (total employees covering all locations)","42 (total employees covering all locations)","The employees are not represented by a union.","5/31/2019","8/31/2019","These are Imperial Distributors, Inc. Sales Service Representatives/Merchandisers working in Stop and Shop stores. The stores are not closing but rather Imperial’s contract to service in these stores is ending.","Plant Closing","https://labor.ny.gov/app/warn/details.asp?id=6808","31-06 Farrington St, Flushing, NY 11354, USA",40.7688895,-73.8342346
"Briad Restaurant Group LLC d/b/a Fridays","Staten Island Mall, 280 Marsh Ave","Restaurant","38","38","The employees are not represented by a union.","6/3/2019","9/8/2019","Economic","Plant Closing","https://labor.ny.gov/app/warn/details.asp?id=6807","280 Marsh Ave, Staten Island, NY 10314, USA",40.5782012,-74.1649488
"Newsday LLC","235 Pinelawn Road, Melville, NY 11747","Newspaper print and distribution","16","794","Local 406, Graphic Communications Conference, International Brotherhood of Teamsters","5/31/2019","December 16, 2018","Economic","Plant Unit Closing","https://labor.ny.gov/app/warn/details.asp?id=6805","235 Pinelawn Rd, Melville, NY 11747, USA",40.7639369,-73.4066025
"Kuni's Corporation d/b/a Ikinari Steak","96 8th Avenue, New York, NY 10011","Restaurant","5 (1 affected employee)","5","The employees are not represented by a union.","2/28/2019","5/31/2019","Economic","Plant Closing","https://labor.ny.gov/app/warn/details.asp?id=6806","96 8th Ave, New York, NY 10011, USA",40.7401615,-74.0019196
"Courtroom Television Network LLC ( WarnerMedia)","One Time Warner Center, New York, NY 10019","Media services","48","-----","The employees are not represented by a union.","5/28/2019","-----","Economic","Plant Layoff","https://labor.ny.gov/app/warn/details.asp?id=6801","10 Columbus Cir, New York, NY 10019, USA",40.7685068,-73.9831349
"Crystal Run Health Plan, LLC","109 Rykowski Lane, Middletown, NY 10941","Health Plans","7","32","The employees are not represented by a union.","4/8/2019","To Be Determined","Economic","Plant Closing","https://labor.ny.gov/app/warn/details.asp?id=6802","109 Rykowski Ln, Middletown, NY 10941, USA",41.4512684,-74.3480251
"Arcadia Group (USA) Limited at Topshop and Topman Stores –  SoHo Store","478 Broadway, New York, NY 10013","British  multinational men & woman fashion retailer","172","172","The employees are not represented by a union.","5/24/2019","6/19/2019","Economic","Possible Plant Closing","https://labor.ny.gov/app/warn/details.asp?id=6803","478 Broadway, New York, NY 10013, USA",40.7213699,-73.999899
"Eastman Kodak Company (Kodak Office) Remote Workers","343 State Street, Rochester, NY 14650","Photographic equipment and Supplies","2","-----","The employees are not represented by a union.","5/20/2019","-----","Economic","Plant Layoff","https://labor.ny.gov/app/warn/details.asp?id=6800","Kodak Tower, 343 State St, Rochester, NY 14650, USA",43.1608082,-77.6196475
"Chelsea Park, LLC dba The Park","118 Tenth Avenue, New York, NY 10011","Restaurant","129","129","The employees are not represented by a union.","5/21/2019","8/25/2019","Economic","Plant Closing","https://labor.ny.gov/app/warn/details.asp?id=6796","118 10th Ave, New York, NY 10011, USA",40.744223,-74.0063139
"DBX, Inc., a subsidiary of The Dress Barn, Inc. and Ascena Retail Group, Inc","33 West 19th Street, New York, NY 10011","Clothing Store","30","30","The employees are not represented by a union.","5/21/2019","8/23/2019","Economic","Plant Closing","https://labor.ny.gov/app/warn/details.asp?id=6797","33 W 19th St, New York, NY 10011, USA",40.7400139,-73.9929501
"Geritrex, LLC","40 Commercial Avenue, Middletown, NY 10941","Pharmaceutical preparations","56","76","The employees are not represented by a union.","5/21/2019","8/18/2019","Company will be shifting to a virtual manufacturing model.","Plant Unit Closing","https://labor.ny.gov/app/warn/details.asp?id=6798","40 Commercial Ave, Middletown, NY 10941, USA",41.464721,-74.350315
"Gourmet Management Corp. (TGI Fridays, KFC, Taco Bell, Pizza Hut, Haagen Dazs, Tim Hortons & Beer Cart Restaurants located at the Restaurant Complex on the Amtrak level of Penn Station)","560 Fifth Avenue, 3rd Floor, New York, NY 10036","Restaurants","82","82","The employees are not represented by a union.","7/13/2018","8/31/2019","Expiration of lease","Plant Closing","https://labor.ny.gov/app/warn/details.asp?id=6794","560 5th Ave 3rd Floor, New York, NY 10036, USA",40.7560789,-73.9794056
"Empire State Mines","408 Sylvia Lake Rd, Gouverneur, NY 13642","Underground zinc mine","87","87","The employees are not represented by a union.","2/26/2019","-----","Restructuring of Operations","Possible Plant Layoff","https://labor.ny.gov/app/warn/details.asp?id=6795","408 Sylvia Lake Rd, Gouverneur, NY 13642, USA",44.264947,-75.408727
"Goldman, Sachs & Co. LLC","200 West Street, New York, NY 10282","Global investment banking","81","9,352","The employees are not represented by a union.","April 1, 2019 through April 30, 2019","-----","Economic","Plant Layoff","https://labor.ny.gov/app/warn/details.asp?id=6792","200 West Street, New York, NY 10282, USA",40.7148544,-74.0144968
"Quin Central Park Hotel","101 W 57th St., New York, NY 10019","Hotel services","18","104","New York Hotel and Motel Trades Council, AFL-CIO","5/13/2019","-----","Curtailing housekeeping operations due to renovation of its rooms","Plant Layoff","https://labor.ny.gov/app/warn/details.asp?id=6793","101 W 57th St, New York, NY 10019, USA",40.7646408,-73.9772407
"Candle Cafe West, LLC","2427 Broadway, New York, NY 10024","Vegan/Organic Restaurant","42","42","The employees are not represented by a union.","5/14/2019","4/22/2019","Gas shut off due to faulty connections in the building","Plant Closing","https://labor.ny.gov/app/warn/details.asp?id=6789","2427 Broadway, New York, NY 10024, USA",40.7905977,-73.9752697
"Ingersoll Rand","3101 Broadway, Cheektowaga, NY 14227","Engine, Turbine and Power Transmission Manufacturing","228","228","International Association of Machinists & Aerospace Workers, District 65, Local #330","4/30/2019","July 1, 2020","Economic","Plant Closing","https://labor.ny.gov/app/warn/details.asp?id=6790","3101 Broadway, Buffalo, NY 14227, USA",42.9017426,-78.7614495
"Eastman Kodak Company (Kodak Office) Remote Worker","343 State Street, Rochester, NY 14650","Photographic equipment and Supplies","1","-----","The employees are not represented by a union.","5/6/2019","-----","Economic","Plant Layoff","https://labor.ny.gov/app/warn/details.asp?id=6791","Kodak Tower, 343 State St, Rochester, NY 14650, USA",43.1608082,-77.6196475
"General Dynamics Information Technology","9th Street Middle, Building 990, Fort Drum, NY 13602","IT service management","51","51","The employees are not represented by a union.","3/4/2019","7/31/2019","Possible Expiration of Warfighter Focus Contract","Possible Plant Closing","https://labor.ny.gov/app/warn/details.asp?id=6788","9th St E, Fort Drum, NY 13602, USA",44.0398402,-75.7356126
"Sodexo, Inc. (at Ithaca College)","1101 Terrace Dining Hall, Ithaca, NY 14850","Food Service Contractors","110","110","The employees are not represented by a union.","3/29/2019","May 31, 2019","Loss of contract","Plant Closing","https://labor.ny.gov/app/warn/details.asp?id=6786","Terrace Dining Hall, Ithaca, NY 14850, USA",42.4198688,-76.4962724
"Concentrix CVG Corporation (Formerly Convergys Corporation)","146 Arsenal Street, Watertown, NY 13601","Inbound Call Center","117","540","The employees are not represented by a union.","2/5/2019","June 30, 2019","Loss of Contract","Plant Unit Closing","https://labor.ny.gov/app/warn/details.asp?id=6785","146 Arsenal St, Watertown, NY 13601, USA",43.9760116,-75.9130623
"American Precision Industries, Inc.","45 Hazelwood Drive, Amherst, NY 14228","Transmission Company","79","79","International United Automobile, Aerospace and Agricultural Implement Workers of America (UAW) Local Union No. 1416","5/1/2019","10/18/2019","Economic","Plant Closing","https://labor.ny.gov/app/warn/details.asp?id=6784","45 Hazelwood Dr, Buffalo, NY 14228, USA",43.0280555,-78.8118943
"Celmatix Inc. (Operations Office)","14 Wall Street, New York, NY 10005","Biotechnology company","48","48","The employees are not represented by a union.","12/17/2018","2/1/2019","Economic","Plant Closing","https://labor.ny.gov/app/warn/details.asp?id=6780","14 Wall St, New York, NY 10005, USA",40.7076193,-74.0105948
"Celmatix Inc. (Operations Office)","14 Wall Street, New York, NY 10005","Biotechnology company","42","42","The employees are not represented by a union.","12/17/2018           Amended","5/1/2019","Economic","Plant Closing","https://labor.ny.gov/app/warn/details.asp?id=6781","14 Wall St, New York, NY 10005, USA",40.7076193,-74.0105948
"Celmatix Inc. (Operations Office)","14 Wall Street, New York, NY 10005","Biotechnology company","66","66","The employees are not represented by a union.","12/17/2018                Amended","2/1/2019","Economic","Plant Closing","https://labor.ny.gov/app/warn/details.asp?id=6782","14 Wall St, New York, NY 10005, USA",40.7076193,-74.0105948
"HN Precision, DBA Nationwide Precision Products","200 Tech Park Drive, Rochester, NY 14623","Machining manufacturer","50","50","The employees are not represented by a union.","5/1/2019","12/31/2019","Economic","Plant Closing","https://labor.ny.gov/app/warn/details.asp?id=6779","200 Tech Park Dr, Rochester, NY 14623, USA",43.0743598,-77.66095
"Frontier Communications Corp.","(Technical Support Organization), 122S Jefferson Rd.","Wired Telecommunications Carriers","286","-----","The employees are not represented by a union.","5/1/2019","-----","Economic","Plant Unit Closing","https://labor.ny.gov/app/warn/details.asp?id=6778","122 Jefferson Rd, Rochester, NY 14623, USA",43.0927424,-77.6683542
"Quin Central Park Hotel","101 W 57th St,, New York, NY 10019","Hotel services","10","105","New York Hotel and Motel Trades Council, AFL-CIO","4/26/2019","-----","Curtailing housekeeping operations due to renovation of its rooms","Plant Layoff","https://labor.ny.gov/app/warn/details.asp?id=6774","101 W 57th St, New York, NY 10019, USA",40.7646408,-73.9772407
"NYSARC Inc.- Suffolk Inc. (AHRC Suffolk) at Shoreham ICF facility","283 Route 25A, Shoreham, NY 11786","Non-profit organization dedicated to applying professional and financial resources toward improving the lives of people.","285","285","The employees are not represented by a union.","4/29/2019","7/31/2019","Transferring operations of its Shoreham ICF facility to Citizens Option Unlimited.","Plant Closing","https://labor.ny.gov/app/warn/details.asp?id=6775","283 NY-25A, Shoreham, NY 11786, USA",40.9449687,-72.872633
"The College of New Rochelle","Main Campus, 29 Castle Place","College","857","857 (Total employees at all sites)","International Brotherhood of Teamsters Local 445","4/8/2019","7/8/2019","Economic","Plant Closing","https://labor.ny.gov/app/warn/details.asp?id=6777","29 Castle Pl, New Rochelle, NY 10805, USA",40.9018725,-73.7816952
"Eastman Kodak Company (Kodak Office)","343 State Street, Rochester, NY 14650","Photographic equipment and Supplies","1","-----","The employee is not represented by a union.","4/23/2019","-----","Economic","Plant Layoff","https://labor.ny.gov/app/warn/details.asp?id=6772","Kodak Tower, 343 State St, Rochester, NY 14650, USA",43.1608082,-77.6196475
"Sodexo, Inc. (at Westchester Medical Center)","100 Woods Road, Valhalla, NY 10595","Perform ES/Custodial Services","263","263","SEIU United Healthcare Workers East","4/12/2019","9/29/2019","Loss of contract","Plant Closing","https://labor.ny.gov/app/warn/details.asp?id=6773","100 Woods Rd, Valhalla, NY 10595, USA",41.0868701,-73.8050457
"Anvil NY LLC dba Benchmarc Restaurants by Marc Murphy","179 West Broadway, New York, NY 10013","Restaurant","6","133 ( Total at both sites)","The employees are not represented by a union.","4/19/2019","8/21/2019","Economic","Plant Closing","https://labor.ny.gov/app/warn/details.asp?id=6771","179 W Broadway, New York, NY 10013, USA",40.717924,-74.0070881
"Applebee's (TLC Central, LLC)","Woodbury Common, 448 Evergreen Court","Restaurant","55","55","The employees are not represented by a union.","4/19/2019","7/16/2019","Economic","Plant Closing","https://labor.ny.gov/app/warn/details.asp?id=6770","498 Red Apple Ct, Central Valley, NY 10917, USA",41.3169448,-74.1250465
"EZ Mailing Services, Inc.","147-34 176th Street, Jamaica, NY 11434","Mailing Services","92","92","The employees are not represented by a union.","4/11/2019","4/19/2019","The company is in the process of attempting to sell the business.","Possible Plant Closing","https://labor.ny.gov/app/warn/details.asp?id=6767","147-34 176th St, Jamaica, NY 11434, USA",40.6599276,-73.7701709
"Association for Metroarea Autistic Children, Inc.","25 West 17th Street, New York, NY 10011","School for children with autism and special needs","77","77","The employees are not represented by a union.","4/17/2019","7/15/2019","Economic","Plant Closing","https://labor.ny.gov/app/warn/details.asp?id=6768","25 W 17th St, New York, NY 10011, USA",40.7386488,-73.9936138
"100 Resilient Cities (a sponsored project of Rockefeller Philanthropy Advisors)","420 Fifth Avenue, New York, NY 10018","The Rockefeller Foundation launched 100 Resilient Cities to help cities around the world become more resilient to the challenges of the 21st century.","49","49","The employees are not represented by a union.","4/18/2019","7/31/2019","Funding ceased.","Plant Unit Closing","https://labor.ny.gov/app/warn/details.asp?id=6769","420 5th Ave, New York, NY 10018, USA",40.7508592,-73.9833243
"ClickSpark LLC","530 Summit Point Drive, Henrietta, NY 14467","Internet marketing service","6","6","The employees are not represented by a union.","4/15/2019","7/15/2019","Economic","Plant Closing","https://labor.ny.gov/app/warn/details.asp?id=6766","530 Summit Point Dr, Henrietta, NY 14467, USA",43.0545048,-77.6522702
"CallVista LLC","530 Summit Point Drive, Henrietta, NY 14467","Call center","75","75","The employees are not represented by a union.","4/15/2019","7/15/2019","Economic","Plant Closing","https://labor.ny.gov/app/warn/details.asp?id=6764","530 Summit Point Dr, Henrietta, NY 14467, USA",43.0545048,-77.6522702
"Aramark Educational Services, LLC (at Barnard College & Java City)","607 W. 116th Street, New York, NY 10027","Provides food service, facilities and uniform services to hospitals, universities, school districts, stadiums and other businesses.","61","61","Transport Workers Union Local 264","4/15/2019","6/30/2019","Loss of contract","Plant Closing","https://labor.ny.gov/app/warn/details.asp?id=6761","607 W 116th St, New York, NY 10027, USA",40.8084584,-73.9645431
"Concentrix CVG Corporation (formerly Convergys Corporation)","146 Arsenal Street, Watertown, NY 13601","Inbound Call Center","244","396","The employees are not represented by a union.","4/16/2019","July 26, 2019","Loss of Contract","Plant Closing","https://labor.ny.gov/app/warn/details.asp?id=6763","146 Arsenal St, Watertown, NY 13601, USA",43.9760116,-75.9130623
"Eastman Kodak Company (Kodak Research Labs)","1999 Lake Avenue, Rochester, NY 14650","Photographic equipment and Supplies","3","-----","The employees are not represented by a union.","4/10/2019","-----","Economic","Plant Layoff","https://labor.ny.gov/app/warn/details.asp?id=6760","1999 Lake Ave, Rochester, NY 14615, USA",43.203548,-77.628987
"Goldman, Sachs & Co. LLC","200 West Street, New York, NY 10282","Global investment banking","98","9,323","The employees are not represented by a union.","2/19/2019","-----","Economic","Plant Layoff","https://labor.ny.gov/app/warn/details.asp?id=6759","200 West Street, New York, NY 10282, USA",40.7148544,-74.0144968
"Crystal Run Health Plan, LLC","109 Rykowski Lane, Middletown, NY 10941","Health Plans","7","32","The employees are not represented by a union.","4/8/2019","To be determined","Economic","Plant Closing","https://labor.ny.gov/app/warn/details.asp?id=6755","109 Rykowski Ln, Middletown, NY 10941, USA",41.4512684,-74.3480251
"Sizmek Technologies, Inc.","401 Park Avenue, South, 5th Floor, New York, NY 10016","Advertising Agency","135","91","The employees are not represented by a union.","4/9/2019","To be determined","Economic","Possible Plant Closing","https://labor.ny.gov/app/warn/details.asp?id=6756","401 Park Ave S 5th Floor, New York, NY 10016, USA",40.7429621,-73.9840393
"Transit Management of Dutchess County","14 Commerce Street, Poughkeepsie, NY 12603","Dutchess County Public Transit bus system operator","95","95","Teamsters Local 445","4/1/2019","6/30/2019","Possible loss of contract with Dutchess County","Possible Plant Closing","https://labor.ny.gov/app/warn/details.asp?id=6758","14 Commerce St, Poughkeepsie, NY 12603, USA",41.6820148,-73.8545298
"AllianceBernstein L.P. (Phase 4)","1345 Sixth Avenue, New York, NY 10105","Providing investment management and research services","30","1,499","The employees are not represented by a union.","4/5/2019","-----","Relocation of Corporate Headquarters to Nashville, Tennessee","Plant Layoff","https://labor.ny.gov/app/warn/details.asp?id=6752","1345 6th Ave, New York, NY 10105, USA",40.7629384,-73.978958
"Banfi Products Corporation","1111 Cedar Swamp Road, Glen Head, NY 11545","Wine and Distilled Alcoholic Beverage Merchant Wholesalers","1","96","The employee is not represented by a union.","3/29/2019","-----","Economic","Plant Layoff","https://labor.ny.gov/app/warn/details.asp?id=6753","1111 Cedar Swamp Rd, Glen Head, NY 11545, USA",40.8273175,-73.5952346
"Banfi Products Corporation","1111 Cedar Swamp Road, Glen Head, NY 11545","Wine and Distilled Alcoholic Beverage Merchant Wholesalers","1","96","The employee is not represented by a union.","4/5/2019","-----","Economic","Plant Layoff","https://labor.ny.gov/app/warn/details.asp?id=6754","1111 Cedar Swamp Rd, Glen Head, NY 11545, USA",40.8273175,-73.5952346
"ShipBob. Inc.","87 34th Street, Brooklyn, NY 11230","Affordable fulfillment center with many fulfillment warehouses","54","54","The employees are not represented by a union.","3/21/2019","5/31/2019","Relocating to a new facility in Pennsylvania","Plant Closing","https://labor.ny.gov/app/warn/details.asp?id=6750","87 34th St, Brooklyn, NY 11232, USA",40.6572197,-74.0059245
"JCPenney Store #2756","9 Smith Haven Mall, Lake Grove, NY 11755","Retail","98","98","The employees are not represented by a union.","4/3/2019","7/6/2019","Economic","Plant Closing","https://labor.ny.gov/app/warn/details.asp?id=6748","9 Smith Haven Mall, Lake Grove, NY 11755, USA",40.8630129,-73.1294042
"Sodexo, Inc. (at Mohawk Valley Community College)","1101 Sherman Dr., Utica, NY 13501-5308","Food Service Contractor","49","49","The employees are not represented by a union.","4/1/2019","6/30/2019","Loss of contract","Plant Closing","https://labor.ny.gov/app/warn/details.asp?id=6749","1101 Sherman Dr, Utica, NY 13501, USA",43.077007,-75.218217
"Irving Plaza (venue operated by Live Nation Worldwide, Inc.)","17 Irving Place, New York, NY 10003","Ballroom-style music venue","63","63","The employees are not represented by a union.","4/2/2019","7/8/2019","Renovations","Plant Closing","https://labor.ny.gov/app/warn/details.asp?id=6747","17 Irving Pl, New York, NY 10003, USA",40.7349063,-73.9883801
"Aramark Educational Services, LLC (at New York University)","60 Washington Square South, New York, NY 10012","Provides food service, facilities and uniform services to hospitals, universities, school districts, stadiums and other businesses around the world","57","461 (total at all site locations)","The employees are not represented by a union.","3/29/2019","6/30/2019","Loss of contract","Plant Closing","https://labor.ny.gov/app/warn/details.asp?id=6744","60 Washington Square S, New York, NY 10012, USA",40.7297809,-73.9978657
"Sodexo, Inc. (at Ithaca College)","1101 Terrace Dining Hall, Ithaca, NY 14850","Food Service Contractors","110","110","The employees are not represented by a union.","3/29/2019","6/7/2019","Loss of contract","Plant Closing","https://labor.ny.gov/app/warn/details.asp?id=6745","Terrace Dining Hall, Ithaca, NY 14850, USA",42.4198688,-76.4962724
"Web.com Group, Inc.","330 W. 34th Street, 16th Floor, New York, NY 10001","Provides a range of Internet services to small businesses","9","13","The employees are not represented by a union.","3/29/2019","-----","Ecomonic","Plant Layoff","https://labor.ny.gov/app/warn/details.asp?id=6740","330 W 34th St 16th floor, New York, NY 10001, USA",40.7526143,-73.9953955
"Tiegerman Middle School","70-24 47th Avenue, Woodside, NY 11377","School","35","35","The employees are not represented by a union.","4/1/2019","7/1/2019","Relocating to Glen Cove, New York in July 2019","Plant Closing","https://labor.ny.gov/app/warn/details.asp?id=6741","70-24 47th Ave, Woodside, NY 11377, USA",40.7388249,-73.8937175
"Barclays Services Corp.","(Chief Operating Office and Functions teams), 745 Seventh Avenue","","","","The employees are not represented by a union.","3/28/2019","","","Plant Layoff","https://labor.ny.gov/app/warn/details.asp?id=6742","745 7th Ave, New York, NY 10019, USA",40.7604859,-73.9831465
"PVH - Tommy Hilfiger","681 Fifth Avenue, New York, NY 10022","Retail","76","78 (total employees at both sites)","The employees are not represented by a union.","3/26/2019","3/25/2019","Economic","Plant Closing","https://labor.ny.gov/app/warn/details.asp?id=6739","681 5th Ave, New York, NY 10022, USA",40.7606908,-73.9753417
"POP Displays USA, LLC","555 Tuckahoe Road, Yonkers, NY 10710","Provides manufactured point of purchase displays for retail and consumer goods companies.","388","388","Amalgamated Production & Service Employees Union Local 22","3/25/2019","7/13/2019","Relocating business to East Point, Georgia and Rye Brook, NY","Plant Closing","https://labor.ny.gov/app/warn/details.asp?id=6738","555 Tuckahoe Rd, Yonkers, NY 10710, USA",40.9540216,-73.8498705
"Ulano Corporation","110 Third Avenue, Brooklyn, NY 11217","Produces photo-sensitive products for the screen printing industry","45","45","Amalgamated, Production and Service Employees Union, Local 22 (Affiliated with International Union of Allied, Novelty and Production Workers, AFL-CIO)","3/13/2019","To be determined","Consolidation of Operations","Plant Closing","https://labor.ny.gov/app/warn/details.asp?id=6727","110 3rd Ave, Brooklyn, NY 11217, USA",40.6831433,-73.9827571
"Art Food, LLC dba The Cafes at MoMa, an affiliate of Union Square Hospitality Group, LLC (at the Museum of Modern Art) (Terrace 5)","11 West 53rd Street, New York, NY 10019","Restaurants","121 (affected for all three restaurants)","-----","The employees are not represented by a union.","3/14/2019","6/15/2019","Renovations","Temporary Plant Unit Closing","https://labor.ny.gov/app/warn/details.asp?id=6735","11 W 53rd St, New York, NY 10019, USA",40.7613258,-73.9774014
"Instacart (at Whole Foods Market)","240 Bedford  Avenue, Brooklyn, NY 11249","Food Services/Delivery","43","43","The employees are not represented by a union.","3/13/2019","5/11/2019","Economic","Plant Closing","https://labor.ny.gov/app/warn/details.asp?id=6736","240 Bedford Ave, Brooklyn, NY 11249, USA",40.7161995,-73.9599394
"Shop Vac Corporation d/b/a Felchar Manufacturing Corporation","(Building One), 191 Corporate Drive","Manufacturing facility, manufacturing wet/dry vacuums","144","Currently there is 394 employees with an estimated number after the layoff of approximately 250 employees.","The employees are not represented by a union.","3/29/2019","-----","Economic","Plant Layoff","https://labor.ny.gov/app/warn/details.asp?id=6737","191 Corporate Dr, Binghamton, NY 13904, USA",42.1059,-75.8153729
"Art Food, LLC dba The Cafes  at MoMa, an affiliate of Union Square Hospitality Group, LLC (at the Museum of  Modern Art) (Terrace 5)","11 West 53rd Street, New York, NY 10019","Restaurants","114 (affected  for all three restaurants)","-----","The employees are not represented by a union.","3/14/2019","6/15/2019","Renovations","Temporary  Plant Unit Closing","https://labor.ny.gov/app/warn/details.asp?id=6734","11 W 53rd St, New York, NY 10019, USA",40.7613258,-73.9774014
"Banfi Products Corporation","1111 Cedar Swamp Road, Glen Head, NY 11545","Wine and Distilled Alcoholic Beverage Merchant Wholesalers and Advertising Agency","11","97","Wine, Liquor & Distillery Workers Union – Local 1- D","3/14/2019","-----","Economic","Plant Layoff","https://labor.ny.gov/app/warn/details.asp?id=6732","1111 Cedar Swamp Rd, Glen Head, NY 11545, USA",40.8273175,-73.5952346
"Instacart (at Whole Foods Market)","240 Bedford  Avenue, Brooklyn, NY 11249","Food Services/Delivery","44","44","The employees are not represented by a union.","3/13/2019","5/11/2019","Economic","Plant Closing","https://labor.ny.gov/app/warn/details.asp?id=6733","240 Bedford Ave, Brooklyn, NY 11249, USA",40.7161995,-73.9599394
"Celmatix Inc. (Operations Office)","14 Wall Street, New York, NY 10005","Biotechnology company","42","42","The employees are not represented by a union.","12/17/2018","5/1/2019","Economic","Plant Closing","https://labor.ny.gov/app/warn/details.asp?id=6730","14 Wall St, New York, NY 10005, USA",40.7076193,-74.0105948
"Concentrix CVG Corporation","(Formerly Convergys Corporation), 146 Arsenal Street","Inbound Call Center; Customer Service, Technical Support","81","540","The employees are not represented by a union.","1/29/2019","5/31/2019","Loss of Contract","Plant Unit Closing","https://labor.ny.gov/app/warn/details.asp?id=6728","146 Arsenal St # 1, Watertown, NY 13601, USA",43.9761788,-75.9134788
"Centerplate","(at the Jacob K. Javits Convention Center), 655 W 34th St.","Food Services","273","273","UNITEHERE Local 100","3/13/2019","6/15/2019","Contract loss","Plant Closing","https://labor.ny.gov/app/warn/details.asp?id=6729","429 11th Ave, New York, NY 10001, USA",40.757797,-74.0023264
"Kiss Products, Inc.","(Production Team), 3 Seaview Blvd","Fingernails, Artificial business","55","419","The employees are not represented by a union.","2/21/2019","May 22, 2019","Moving warehouse functions to New Jersey","Plant Closing","https://labor.ny.gov/app/warn/details.asp?id=6724","3 Seaview Blvd, Port Washington, NY 11050, USA",40.8154649,-73.6575514
"Macy's Systems and Technology, Inc.","(Field Services Operational Unit), 1701 Sunrise Hwy.","Engages in creating, gathering, and directing pieces of data to form management tools","1","57 (total affected employees at all sites)","The employees are not represented by a union.","3/8/2019","June 9, 2019","Economic","Plant Closing","https://labor.ny.gov/app/warn/details.asp?id=6725","1701 Sunrise Hwy, Bay Shore, NY 11706, USA",40.7396345,-73.24668
"Goldman, Sachs & Co. LLC","200 West Street, New York, NY 10282","Global investment banking","65","9,323","The employees are not represented by a union.","2/27/2019","-----","Economic","Plant Layoff","https://labor.ny.gov/app/warn/details.asp?id=6726","200 West Street, New York, NY 10282, USA",40.7148544,-74.0144968
"Ivy Enterprises, Inc.","(Production Team), 3 Seaview Blvd","Fingernails, Artificial business","4 (1 affected worker notice has been rescinded)","161","The employees are not represented by a union.","2/21/2019","May 22, 2019","Moving warehouse functions to New Jersey","Plant Closing","https://labor.ny.gov/app/warn/details.asp?id=6723","3 Seaview Blvd, Port Washington, NY 11050, USA",40.8154649,-73.6575514
"Calvin Klein, Inc. (Corporate Office)","205 West 39th Street, New York, NY 10018","Clothing Retail store","38","38","The employees are not represented by a union.","3/6/2019","March 6, 2019","Economic","Plant Closing","https://labor.ny.gov/app/warn/details.asp?id=6721","205 W 39th St, New York, NY 10018, USA",40.7546399,-73.9889772
"SC & BP Services, Inc.","(Texcare site), 1064 62nd Street","Self-service laundries","55","55","UFCW Local 312","3/4/2019","June 2, 2019","Economic","Plant Closing","https://labor.ny.gov/app/warn/details.asp?id=6722","1250 Broadway, New York, NY 10001, USA",40.7476873,-73.9878772
"Kuni's Corporation d/b/a Ikinari Steak","96 8th Avenue, New York, NY 10011","Restaurant","5","5","The employees are not represented by a union.","2/28/2019","5/31/2019","Economic","Plant Closing","https://labor.ny.gov/app/warn/details.asp?id=6719","96 8th Ave, New York, NY 10011, USA",40.7401615,-74.0019196
"General Dynamics Information Technology","9th Street Middle, Building 990, Fort Drum, NY 13602","","","","The employees are not represented by a union.","3/4/2019","","","Possible Plant Closing","https://labor.ny.gov/app/warn/details.asp?id=6720","9th St E, Fort Drum, NY 13602, USA",44.0398402,-75.7356126
"Aramark Educational Services, LLC","(at Clarkson University), 10 Clarkson Avenue","Provides food service, facilities and uniform services to hospitals, universities, school districts, stadiums and other businesses","193","193","SEIU Local 200 United","3/4/2019","6/3/2019","Loss of Contract with Clarkson University","Plant Closing","https://labor.ny.gov/app/warn/details.asp?id=6716","8 Clarkson Ave, Potsdam, NY 13699, USA",44.6636819,-74.9977112
"New Era Cap Co., Inc.","8061 Erie Road, Derby, NY 14047","Manufactures headwear, apparel, and accessories for men, women, youth, and kids","216","216","Local 14177, Communications Workers of America","12/5/2018","6/7/2019","Economic","Plant Closing","https://labor.ny.gov/app/warn/details.asp?id=6717","8061 Erie Rd, Derby, NY 14047, USA",42.665709,-79.028279
"Maryhaven Center of Hope, Inc. (Vocational Rehabilitation and Day Habilitation Transportation Services Dept.)","51 Terryville Road, Port Jefferson Station, NY 11776","Vocational Rehabilitation and Day Habilitation Transportation Services Dept.","75","75","The employees are not represented by a union.","2/27/2019","June 1, 2019","Acquisition by Suffolk Transportation","Plant Closing","https://labor.ny.gov/app/warn/details.asp?id=6712","51 Terryville Rd, Port Jefferson Station, NY 11776, USA",40.926926,-73.051579
"Empire State Mines","408 Sylvia Lake Rd, Gouverneur, NY 13642","Underground zinc mine","87","87","The employees are not represented by a union.","2/26/2019","-----","Restructuring of Operations","Possible Plant Layoff","https://labor.ny.gov/app/warn/details.asp?id=6713","408 Sylvia Lake Rd, Gouverneur, NY 13642, USA",44.264947,-75.408727
"Empire Vision Center, Inc.","(Visionworks - Central Lab), 6940 Fly Road","Ophthalmic Goods Manufacturing","89","89","Local Union No. 81408 of the IUE/CWA International Union","2/28/2019","June 7, 2019","Economic","Plant Closing","https://labor.ny.gov/app/warn/details.asp?id=6714","6940 Fly Rd, East Syracuse, NY 13057, USA",43.1075725,-76.059939
"MetLife (Global Technology & Operations Department)","500 Jordan Road, Troy, NY 12180","Insurance company","26","275","The employees are not represented by a union.","2/28/2019","-----","Economic","Plant Layoff","https://labor.ny.gov/app/warn/details.asp?id=6715","500 Jordan Rd, Troy, NY 12180, USA",42.6843516,-73.6964787
"Kiss Products, Inc.","(Production Team), 3 Seaview Blvd","Fingernails, Artificial business","52","419","The employees are not represented by a union.","2/21/2019","May 22, 2019","Moving warehouse functions to New Jersey","Plant Closing","https://labor.ny.gov/app/warn/details.asp?id=6709","3 Seaview Blvd, Port Washington, NY 11050, USA",40.8154649,-73.6575514
"Ivy Enterprises, Inc.","(Production Team), 3 Seaview Blvd","Fingernails, Artificial business","4","161","The employees are not represented by a union.","2/21/2019","May 22, 2019","Moving warehouse functions to New Jersey","Plant Closing","https://labor.ny.gov/app/warn/details.asp?id=6710","3 Seaview Blvd, Port Washington, NY 11050, USA",40.8154649,-73.6575514
"CareConnect Insurance Company, Inc.","2200 Northern Boulevard, Suite 104, East Hills, NY 11548","Insurance company","31","35","The employees are not represented by a union.","2/27/2019","To be determined","Implementation of the Care Connect Exit Plan","Plant Closing","https://labor.ny.gov/app/warn/details.asp?id=6711","2200 Northern Blvd Suite 104, Greenvale, NY 11548, USA",40.8060868,-73.6350077
"Gourmet Management Corp. (TGI Fridays, KFC, Taco Bell, Pizza Hut, Haagen Dazs, Tim Hortons & Beer Cart Restaurants located at the Restaurant Complex on the Amtrak level of Penn Station)","560 Fifth Avenue, 3rd Floor, New York, NY 10036","Restaurants","86","86","The employees are not represented by a union.","7/13/2018","To Be Determined","Expiration of lease","Plant Closing","https://labor.ny.gov/app/warn/details.asp?id=6707","560 5th Ave 3rd Floor, New York, NY 10036, USA",40.7560789,-73.9794056
"New England Motor Freight (NEMF)","7201 Schuyler Rd., East Syracuse, NY 13057","General Freight Trucking, Local","63","518 (total for all sites)","Local 447 of District 15 of the International Association of Machinists and Aerospace Workers, AFL-CIO","2/14/2019","2/15/2019","Filed for Chapter 11 Bankruptcy","Plant Closing","https://labor.ny.gov/app/warn/details.asp?id=6708","7201 Schuyler Rd, East Syracuse, NY 13057, USA",43.12137,-76.075144
"Alleson of Rochester, Inc.","2340 Brighton Henrietta Town Line Road, Rochester, NY 14623","Manufactures in-stock uniforms and sublimated garments.","75","116 ( total at both locations)","Rochester Regional Joint Board, Local 388, Workers United","2/18/2019","June 7, 2019","Implementing an operational restructuring","Plant Closing","https://labor.ny.gov/app/warn/details.asp?id=6705","2340 Brighton Henrietta Town Line Rd, Rochester, NY 14623, USA",43.0959034,-77.614769
"Prestone Press, LLC","4750 30th Street, Long Island City, NY 11101","Commercial printer","75","75","The employees are not represented by a union.","2/7/2019","June 2, 2019","Economic","Plant Closing","https://labor.ny.gov/app/warn/details.asp?id=6706","47-50 30th St, Long Island City, NY 11101, USA",40.7415868,-73.938462
"Ivy Enterprises, Inc.","(Warehouse), 3 Seaview Blvd","Fingernails, Artificial Business","24","161","The employees are not represented by a union.","10/9/2018","3/22/2019","Moving warehouse functions to New Jersey","Plant Closing","https://labor.ny.gov/app/warn/details.asp?id=6704","3 Seaview Blvd, Port Washington, NY 11050, USA",40.8154649,-73.6575514
"Prestone Press, LLC","4750 30th Street, Long Island City, NY 11101","Commercial printer","75","75","The employees are not represented by a union.","2/7/2019","May 23, 2019","Economic","Plant Closing","https://labor.ny.gov/app/warn/details.asp?id=6700","47-50 30th St, Long Island City, NY 11101, USA",40.7415868,-73.938462
"AllianceBernstein L.P.","1345 Sixth Avenue, New York, NY 10105","Providing investment management and research services","98","1,517","The employees are not represented by a union.","2/14/2019","-----","Relocation of Corporate Headquarters to Nashville, Tennessee","Plant Layoff","https://labor.ny.gov/app/warn/details.asp?id=6701","1345 6th Ave, New York, NY 10105, USA",40.7629384,-73.978958
"Macy's Systems and Technology, Inc. (MTECH Field Services Operational Unit)","Roosevelt Field, 630 Old Country Road","Engages in creating, gathering, and directing pieces of data to form management tools","1","1","The employees are not represented by a union.","2/15/2019","6/1/2019","Economic","Plant Closing","https://labor.ny.gov/app/warn/details.asp?id=6702","630 Old Country Rd, Garden City, NY 11530, USA",40.7379804,-73.6129024
"The Robert Allen Duralee Group, Inc.","125 Michael Drive, Suite 101, Syosset, NY 11749","Luxury home décor","5","119 (total at all sites)","The employees are not represented by a union.","2/15/2019","-----","Chapter 11 filing and sale of business","Possible Plant Layoff/Closing","https://labor.ny.gov/app/warn/details.asp?id=6703","125 Michael Dr Suite 105, Syosset, NY 11791, USA",40.8053023,-73.5199321
"Thesys CAT, LLC","1740 Broadway, 14th Floor, New York, NY 10019","Computer Programming Services","35","35","The employees are not represented by a union.","2/19/2019","4/15/2019","Termination of CAT Project contract","Plant Closing","https://labor.ny.gov/app/warn/details.asp?id=6698","1740 Broadway 14th Floor, New York, NY 10019, USA",40.7650295,-73.9817281
"Eastman Kodak Company (Kodak Office)","343 State Street, Rochester, NY 14650","Photographic equipment and Supplies","1 (remote employee)","-----","The employee is not represented by a union.","2/13/2019","-----","Economic","Plant Layoff","https://labor.ny.gov/app/warn/details.asp?id=6699","Kodak Tower, 343 State St, Rochester, NY 14650, USA",43.1608082,-77.6196475
"Doubletree Suites by Hilton Hotel New York City Times Square","1568 Broadway, New York, NY 10036","","","","New York Hotel  & Motel Trades Council, AFL-CIO","2/13/2019","","","Plant Closing","https://labor.ny.gov/app/warn/details.asp?id=6696","1568 Broadway, New York, NY 10036, USA",40.7589085,-73.9844183
"Buffalo Filter, LLC","5900 Genesee Street, Lancaster, NY 14086","Medical equipment manufacturer","15","114","The employees are not represented by a union.","2/12/2019","-----","Economic","Plant Layoff","https://labor.ny.gov/app/warn/details.asp?id=6693","5900 Genesee St, Lancaster, NY 14086, USA",42.9464039,-78.6336676
"Fluor Enterprises, Inc.","568 Shore Airport Road, Ticonderoga, NY 12883","Construction project management","2","2","The employees are not represented by a union.","2/12/2019","2/28/2019","Contract loss with International Paper","Plant Closing","https://labor.ny.gov/app/warn/details.asp?id=6694","568 Shore-Airport Rd, Ticonderoga, NY 12883, USA",43.8921649,-73.4024065
"Fluor Industrial Services, Inc.","568 Shore Airport Road, Ticonderoga, NY 12883","Construction project management","20","20","The employees are not represented by a union.","2/12/2019","2/28/2019","Contract loss with International Paper","Plant Closing","https://labor.ny.gov/app/warn/details.asp?id=6695","568 Shore-Airport Rd, Ticonderoga, NY 12883, USA",43.8921649,-73.4024065
"Walmart","Facility #3577 (Processes online orders), 141 Washington Avenue Ext.","","","","The employees are not represented by a union.","2/12/2019","","","","https://labor.ny.gov/app/warn/details.asp?id=6692","141 Washington Ave Ext, Albany, NY 12205, USA",42.6953088,-73.8461142
"Eastman Kodak Company (Kodak Office)","343 State Street, Rochester, NY 14650","Photographic equipment and Supplies","1","-----","The employee is not represented by a union.","1/31/2019","-----","Economic","Plant Layoff","https://labor.ny.gov/app/warn/details.asp?id=6691","Kodak Tower, 343 State St, Rochester, NY 14650, USA",43.1608082,-77.6196475
"Ivy Enterprises, Inc.","(Warehouse), 3 Seaview Blvd","Fingernails, Artificial Business","24","132","The employees are not represented by a union.","10/9/2018","5/10/2019","Moving warehouse functions to New Jersey","Plant Closing","https://labor.ny.gov/app/warn/details.asp?id=6690","3 Seaview Blvd, Port Washington, NY 11050, USA",40.8154649,-73.6575514
"Web.com Group, Inc.","330 W. 34th Street, 16th Floor, New York, NY 10001","Provides a range of Internet services to small businesses","39","To be determined","The employees are not represented by a union.","2/1/2019","-----","Ecomonic","Plant Layoff","https://labor.ny.gov/app/warn/details.asp?id=6688","330 W 34th St 16th floor, New York, NY 10001, USA",40.7526143,-73.9953955
"Eclipse Advantage, LLC","105 Rotterdam Industrial Park, Schenectady, NY 12306","Unloading services with Union Pacific/Cold Connect.","62","62","The employees are not represented by a union.","2/6/2019","May 6, 2019","Service contract cancelation with Union Pacific Cold Connect/Railex","Plant Closing","https://labor.ny.gov/app/warn/details.asp?id=6689","105 Rotterdam Industrial Park, Rotterdam, NY 12306, USA",42.7871175,-73.9913314
"Concentrix CVG Corporation (formerly Convergys Corporation)","146 Arsenal Street, Watertown, NY 13601","Inbound Call Center","117","540","The employees are not represented by a union.","2/5/2019","June 30, 2019","Loss of Contract","Plant Unit Closing","https://labor.ny.gov/app/warn/details.asp?id=6687","146 Arsenal St, Watertown, NY 13601, USA",43.9760116,-75.9130623
"St. Joseph School","25 Church Street, Ronkonkoma, NY 11779","School","38","38","The employees are not represented by a union.","1/31/2019","6/26/2019","Economic","Plant Closing","https://labor.ny.gov/app/warn/details.asp?id=6686","25 Church St, Ronkonkoma, NY 11779, USA",40.8175112,-73.1172112
"AllianceBernstein L.P.","1345 Sixth Avenue, New York, NY 10105","Providing investment management and research services","36","1 North Lexington Ave., White Plains, NY 10601 (18 affected employees, 228 Total Employees)","The employees are not represented by a union.","2/1/2019","-----","Relocation of Corporate Headquarters to Nashville, Tennessee","Plant Layoff","https://labor.ny.gov/app/warn/details.asp?id=6681","1345 6th Ave, New York, NY 10105, USA",40.7629384,-73.978958
"All Saints Regional Catholic School","12 Pearsall Avenue, Glen Cove, NY 11542","","","","The employees are not represented by a union.","1/31/2019","","","Plant Closing","https://labor.ny.gov/app/warn/details.asp?id=6684","12 Pearsall Ave, Glen Cove, NY 11542, USA",40.8612898,-73.621495
"Eastman Kodak Company (Eastman Business Park)","1669 Lake Avenue, Rochester, NY 14650","Photographic equipment and Supplies","2","-----","The employees are not represented by a union.","1/31/2019","-----","Economic","Plant Layoff","https://labor.ny.gov/app/warn/details.asp?id=6679","1669 Lake Ave, Rochester, NY 14615, USA",43.1968638,-77.6303804
"ABM Aviation Inc.","Delta Airlines at JFK International Airport. Terminals 2 and 4, Jamaica, NY 11430","Cabin cleaning services at Delta Airlines at JFK International Airport. Terminals 2 and 4","528","528","SEIU Local 32BJ","1/28/2019","5/3/2019","Contractual Loss","Plant Closing","https://labor.ny.gov/app/warn/details.asp?id=6678","Terminal 4 Concourse B near, Gate B31, Jamaica, NY 11430, USA",40.639271,-73.781489
"Concentrix CVG Corporation","(Formerly Convergys Corporation), 146 Arsenal Street","","","","The employees are not represented by a union.","1/29/2019","","","Plant Unit Closing","https://labor.ny.gov/app/warn/details.asp?id=6677","146 Arsenal St # 1, Watertown, NY 13601, USA",43.9761788,-75.9134788
"Petland Discounts Inc.","","Retail pet store","367","367 (Total at all locations)","The employees are not represented by a union.","1/18/2019","4/18/2019","Economic","Plant Closings","https://labor.ny.gov/app/warn/details.asp?id=6676","125 SE 3rd Ave, Hillsboro, OR 97123, USA",45.522208,-122.9863281
"Metropolitan Jewish Home Care, Inc. d\b\a MJHS Home Care","6323 Seventh Avenue, Brooklyn, NY 11220","Home care services","112","246","The employees are not represented by a union.","1/15/2019","-----","Economic","Plant Layoff","https://labor.ny.gov/app/warn/details.asp?id=6671","6323 7th Ave, Brooklyn, NY 11220, USA",40.6346085,-74.013359
"Centerplate at the New York Racing Association (NYRA)","Saratoga Racetracks, 267 Union Avenue","Hospitality services","441","441","New York Hotel & Motel Trades Council, AFL-CIO","1/17/2019","April 21, 2019","Contract Loss","Plant Closing","https://labor.ny.gov/app/warn/details.asp?id=6672","267 Union Ave, Saratoga Springs, NY 12866, USA",43.0739705,-73.7679799
"SAE Sun and Earth Energy Inc.","444 Washington Street, Rensselaer, NY 12144","","","","The employees are not represented by a union.","1/25/2019","","","Plant Layoff","https://labor.ny.gov/app/warn/details.asp?id=6673","444 Washington St, Rensselaer, NY 12144, USA",42.6416669,-73.7431956
"Monolith Solar Associates, LLC","444 Washington Street, Rensselaer, NY 12144","","","","The employees are not represented by a union.","","","","","https://labor.ny.gov/app/warn/details.asp?id=6674","444 Washington St, Rensselaer, NY 12144, USA",42.6416669,-73.7431956
"Monticello Raceway Management, Inc. (Casino)","204 State Route 17B, Monticello, NY 12701","","","","New York Hotel & Motel Trades Council,  AFL-CIO - 92 employees; the Laborers' International Union of North America,  Local 17, AFL-CIO- 13 employees; the International Union of Operating  Engineers, Local 825 – 5 employees; and the Northeast Regional Council of  Carpenters, United Brotherhood of Carpenters and Joinders of America- 2  employees.","","","","","https://labor.ny.gov/app/warn/details.asp?id=6675","204 NY-17B, Monticello, NY 12701, USA",41.6687829,-74.7145027
"Celmatix Inc. (Operations Office)","14 Wall Street, New York, NY 10005","Biotechnology company","66","66","The employees are not represented by a union.","12/17/2018","2/1/2019","Economic","Plant Closing","https://labor.ny.gov/app/warn/details.asp?id=6670","14 Wall St, New York, NY 10005, USA",40.7076193,-74.0105948
"Gourmet Management Corp. (TGI Fridays, KFC, Taco Bell, Pizza Hut, Haagen Dazs, Tim Hortons & Beer Cart Restaurants located at the Restaurant Complex on the Amtrak level of Penn Station)","560 Fifth Avenue, 3rd Floor, New York, NY 10036","Restaurants","86","86","The employees are not represented by a union.","7/13/2018","2/28/2019","Expiration of lease","Plant Closing","https://labor.ny.gov/app/warn/details.asp?id=6667","560 5th Ave 3rd Floor, New York, NY 10036, USA",40.7560789,-73.9794056
"Third & 50, LLC (aka Dos Caminos)","825 Third Avenue, New York, NY 10022","Restaurant","100","100","The employees are not represented by a union.","1/18/2019","April 30, 2019","Lease expiration","Plant Closing","https://labor.ny.gov/app/warn/details.asp?id=6668","825 3rd Ave, New York, NY 10022, USA",40.7558722,-73.9701462
"Mercedes Distribution Center, Inc.","63 Flushing Avenue, Unit 340, Brooklyn, NY 11205","Warehouse Distribution service","100","100","International Brotherhood of Teamsters, Local 553","1/18/2019","February 01, 2019","Economic","Plant Closing","https://labor.ny.gov/app/warn/details.asp?id=6669","63 Flushing Ave #340, Brooklyn, NY 11205, USA",40.6984715,-73.9777647
"Macy's","7000 Fashion Drive, Nanuet, NY 10954","Retail Store","92","92","The employees are not represented by a union.","1/18/2019","April 2, 2019","Economic","Plant Closing","https://labor.ny.gov/app/warn/details.asp?id=6665","7000 Fashion Dr, Nanuet, NY 10954, USA",41.0954415,-74.0152643
"TheaterMania.com","550 7th Ave, New York, NY 10018","Offers directory of shows, tickets, and discounts across the U.S.","17","81","The employees are not represented by a union.","1/16/2019","April 16, 2019","Economic","Plant Layoff","https://labor.ny.gov/app/warn/details.asp?id=6666","550 7th Ave, New York, NY 10018, USA",40.7544525,-73.9884721
"Senior Rehab Solutions (Norwegian Home and Health Center)","1250 67th Street, Brooklyn, NY 11219","Nursing home","22","22","The employees are not represented by a union.","1/7/2018","2/4/2019","Economic","Plant Layoff","https://labor.ny.gov/app/warn/details.asp?id=6663","1250 67th St, Brooklyn, NY 11219, USA",40.6249141,-74.0041677
"CareConnect Insurance Company, Inc.","2200 Northern Boulevard, East Hills, NY 11548","Health insurance market","46","40","The employees are not represented by a union.","1/16/2019","To be determined","Economic","Plant Closing","https://labor.ny.gov/app/warn/details.asp?id=6664","2200 Northern Blvd, Greenvale, NY 11548, USA",40.8060868,-73.6350077
"Kohl's Department Stores, Inc. (Store #1328)","6135 Junction Blvd., Rego Park, NY 11374","Retail store","107","107","The employees are not represented by a union.","1/10/2019","4/13/2019","Economic","Plant Closing","https://labor.ny.gov/app/warn/details.asp?id=6660","6135 Junction Blvd, Rego Park, NY 11374, USA",40.7336429,-73.864081
"Thomson Reuters Corporation","(Operations and Enablement - Technology, Content Operations & Legal Editorial), 50 East Broad Street","Multinational mass media and information firm","207","327","The employees are not represented by a union.","11/13/2018","September 30, 2019","Economic","Plant Closing","https://labor.ny.gov/app/warn/details.asp?id=6661","E Broad St, Rochester, NY, USA",43.1551518,-77.6045392
"General Motors LLC (Cadillac New York Headquarters)","330 Hudson Street, New York, NY 10013","Automobile manufacturer and retailer.","97","97","The employees are not represented by a union.","1/15/2019","4/1/2019","Economic","Plant Closing","https://labor.ny.gov/app/warn/details.asp?id=6662","330 Hudson St, New York, NY 10013, USA",40.7270729,-74.0069681
"Calvin Klein, Inc.","(Madison Collection Store), 654 Madison Avenue","Clothing Retail store","29","29","The employees are not represented by a union.","1/11/2019","4/30/2019","Economic","Plant Closing","https://labor.ny.gov/app/warn/details.asp?id=6659","654 Madison Ave, New York, NY 10065, USA",40.7645805,-73.9711953
"Aveda Institute Inc.","(Aveda Institute New York School), 233 Spring Street","Beauty school","48","48","The employees are not represented by a union.","1/10/2019","4/24/2019","Sale of the Aveda Institute New York School","Plant Closing","https://labor.ny.gov/app/warn/details.asp?id=6658","233 Spring St, New York, NY 10013, USA",40.7257918,-74.0049686
"Independence Care System, Inc. (ICS)","257 Park Avenue South, New York, NY 10010","Managed Long-Term Care (MLTC)","97","97","The employees are not represented by a union.","1/7/2019","4/7/2019","Due to changes in its business, ICS will be closing its MLTC line of business.","Plant Closing","https://labor.ny.gov/app/warn/details.asp?id=6657","257 Park Ave S, New York, NY 10010, USA",40.7386232,-73.9871351
"Pfizer, Inc.","64 Maple Street, Rouses Point, NY 12979","Pharmaceuticals (production)","6","12","International Chemical Workers Union/UFCW Local 95c","1/9/2019","12/31/2018","Economic","Plant Closing","https://labor.ny.gov/app/warn/details.asp?id=6655","64 Maple St, Rouses Point, NY 12979, USA",44.9885663,-73.3665559
"AT&T Services, Inc.","(Billing Inquiry Call Center Operations), 250 South Clinton Street","Telecommunications (Billing Inquiry Call Center Operations)","155","155","Communications Workers of America","1/7/2019","4/12/2019","Transfer of operations to Orange Park, Florida","Plant Closing","https://labor.ny.gov/app/warn/details.asp?id=6656","250 S Clinton St, Syracuse, NY 13202, USA",43.0490775,-76.1539416
"Lighthouse Management Services, LLC","300 Clinton Square, Rochester, NY 14604","Property management company","48","48","The employees are not represented by a union.","1/7/2019","9/30/2019","Termination of property management contracts","Plant Closing","https://labor.ny.gov/app/warn/details.asp?id=6654","300 Clinton Square, Rochester, NY 14604, USA",43.1569862,-77.6068676
"Morrison Healthcare Food and Nutrition Services at Erie Medical Center","462 Grider Street, Buffalo, NY 14215","National food and nutrition services company","172","172","CSEA Local 1000, AFSCME, AFL-CIO","1/6/2019","4/6/2019","Contractual Loss","Plant Closing","https://labor.ny.gov/app/warn/details.asp?id=6652","462 Grider St, Buffalo, NY 14215, USA",42.9267958,-78.8321408
"Kmart Store (Unit 07677)","121 Bolivar Road, Wellsville, NY 14895","Retail Store","88","88","The employees are not represented by a union.","12/27/2018","3/26/2019","Economic","Plant Closing","https://labor.ny.gov/app/warn/details.asp?id=6649","121 Bolivar Rd, Wellsville, NY 14895, USA",42.1264941,-77.962622
"Kmart Store (Unit 04928)","49 Dix Avenue Ext., Queensbury, NY 12804","Retail Store","60","60","The employees are not represented by a union.","12/27/2018","3/26/2019","Economic","Plant Closing","https://labor.ny.gov/app/warn/details.asp?id=6650","49 Dix Ave, Queensbury, NY 12801, USA",43.314144,-73.6130869
"Sears, Roebuck and Co. Full Line Store (Unit 01894)","10 Miracle Mile Dr., Rochester, NY 14623","Retail Store","70","70","The employees are not represented by a union.","12/27/2018","3/26/2019","Economic","Plant Closing","https://labor.ny.gov/app/warn/details.asp?id=6651","10 Miracle Mile Dr, Rochester, NY 14623, USA",43.081541,-77.633514
"St. Lawrence Health Alliance, Inc.","3 Lyon Place, Ogdensburg, NY 13669","Healthcare Services","72","72","The employees are not represented by a union.","12/28/2018","3/31/2019","The Claxton-Hepburn Medical Center will assume operations and all employees will be offered employment.","Plant Closing","https://labor.ny.gov/app/warn/details.asp?id=6648","3 Lyon Pl, Ogdensburg, NY 13669, USA",44.691056,-75.4996119
